{"type": "FeatureCollection", "features": [{"type": "Feature", "geometry": {"type": "Point", "coordinates": [-72.1063888888889, -50.9961111111111]}, "properties": {"series_id": 38539, "station_id": 6516, "station": "Vizcachas - Cerro Palique", "river": "", "variable": "Altura hidrométrica 4-horaria", "var_id": 101, "unit": "", "network": "sat2", "procedure": "", "n_obs": 17, "last_seen": "2026-08-30T19:00:00.000Z", "live": true, "percentiles": false}}, {"type": "Feature", "geometry": {"type": "Point", "coordinates": [-57.0830555555556, -29.7219444444444]}, "properties": {"series_id": 38673, "station_id": 6621, "station": "Uruguay - Paso de los Libres", "river": "", "variable": "Altura hidrométrica 4-horaria", "var_id": 101, "unit": "", "network": "sat2", "procedure": "", "n_obs": 15, "last_seen": "2026-08-30T11:00:00.000Z", "live": true, "percentiles": false}}, {"type": "Feature", "geometry": {"type": "Point", "coordinates": [-71.9077777777778, -50.2522222222222]}, "properties": {"series_id": 26491, "station_id": 2165, "station": "Charles Fhur", "river": "", "variable": "Altura hidrométrica media diaria", "var_id": 39, "unit": "", "network": "sat2", "procedure": "", "n_obs": 2, "last_seen": "2026-08-29T03:00:00.000Z", "live": true, "percentiles": ""}}, {"type": "Feature", "geometry": {"type": "Point", "coordinates": [-54.2, -27.3]}, "properties": {"series_id": 26658, "station_id": 61, "station": "El Soberbio", "river": "URUGUAY", "variable": "Caudal medio diario", "var_id": 40, "unit": "", "network": "alturas_prefe", "procedure": "", "n_obs": 2, "last_seen": "2026-08-29T03:00:00.000Z", "live": true, "percentiles": ""}}, {"type": "Feature", "geometry": {"type": "Point", "coordinates": [-56.727244, -27.482557]}, "properties": {"series_id": 937, "station_id": 88, "station": "Yacyretá efluente", "river": "PARANAMED", "variable": "Caudal", "var_id": 4, "unit": "", "network": "alturas_prefe", "procedure": "", "n_obs": 3, "last_seen": "2026-08-30T03:00:00.000Z", "live": true, "percentiles": ""}}, {"type": "Feature", "geometry": {"type": "Point", "coordinates": [-59.58115833, -29.23756092]}, "properties": {"series_id": 26266, "station_id": 24, "station": "Reconquista", "river": "SANJAVIER", "variable": "Altura hidrométrica media diaria", "var_id": 39, "unit": "", "network": "alturas_prefe", "procedure": "", "n_obs": 2, "last_seen": "2026-08-29T03:00:00.000Z", "live": true, "percentiles": ""}}, {"type": "Feature", "geometry": {"type": "Point", "coordinates": [-70.5616666666667, -51.865]}, "properties": {"series_id": 38601, "station_id": 6533, "station": "Gallegos Chico - Bella Vista", "river": "", "variable": "Altura hidrométrica 4-horaria", "var_id": 101, "unit": "", "network": "sat2", "procedure": "", "n_obs": 13, "last_seen": "2026-08-30T03:00:00.000Z", "live": true, "percentiles": ""}}, {"type": "Feature", "geometry": {"type": "Point", "coordinates": [-65.3155555555555, -27.1333333333333]}, "properties": {"series_id": 38043, "station_id": 6650, "station": "Salí - RP Nº323", "river": "", "variable": "Altura hidrométrica media diaria", "var_id": 39, "unit": "", "network": "sat2", "procedure": "", "n_obs": 2, "last_seen": "2026-08-29T03:00:00.000Z", "live": true, "percentiles": ""}}, {"type": "Feature", "geometry": {"type": "Point", "coordinates": [-68.5313888888889, -53.8416666666667]}, "properties": {"series_id": 33058, "station_id": 6639, "station": "Afluente Río Grande       ", "river": "", "variable": "Altura hidrométrica", "var_id": 2, "unit": "", "network": "sat2", "procedure": "", "n_obs": 15, "last_seen": "2026-08-30T19:00:00.000Z", "live": true, "percentiles": false}}, {"type": "Feature", "geometry": {"type": "Point", "coordinates": [-70.8913888888889, -41.8419444444444]}, "properties": {"series_id": 33516, "station_id": 6640, "station": "Ñorquinco - Ñorquinco", "river": "", "variable": "Altura hidrométrica", "var_id": 2, "unit": "", "network": "sat2", "procedure": "", "n_obs": 15, "last_seen": "2026-08-30T19:00:00.000Z", "live": true, "percentiles": false}}, {"type": "Feature", "geometry": {"type": "Point", "coordinates": [-57.9827777777778, -30.6275]}, "properties": {"series_id": 33216, "station_id": 6664, "station": "Aº Mocoretá - RN Nº 14", "river": "", "variable": "Altura hidrométrica", "var_id": 2, "unit": "", "network": "sat2", "procedure": "", "n_obs": 18, "last_seen": "2026-08-30T23:00:00.000Z", "live": true, "percentiles": ""}}, {"type": "Feature", "geometry": {"type": "Point", "coordinates": [-57.5655555555556, -29.2969444444444]}, "properties": {"series_id": 34121, "station_id": 6735, "station": "Miriñay - San Roquito", "river": "", "variable": "Altura hidrométrica", "var_id": 2, "unit": "", "network": "sat2", "procedure": "", "n_obs": 18, "last_seen": "2026-08-30T23:00:00.000Z", "live": true, "percentiles": false}}, {"type": "Feature", "geometry": {"type": "Point", "coordinates": [-59.0497222222222, -28.5052777777778]}, "properties": {"series_id": 38469, "station_id": 6400, "station": "Paraná - Bella Vista", "river": "", "variable": "Altura hidrométrica 4-horaria", "var_id": 101, "unit": "", "network": "sat2", "procedure": "", "n_obs": 17, "last_seen": "2026-08-30T19:00:00.000Z", "live": true, "percentiles": ""}}, {"type": "Feature", "geometry": {"type": "Point", "coordinates": [-60.2195849446607, -32.6558456373673]}, "properties": {"series_id": 32, "station_id": 32, "station": "Victoria", "river": "VICTORIA", "variable": "Altura hidrométrica", "var_id": 2, "unit": "", "network": "alturas_prefe", "procedure": "", "n_obs": 3, "last_seen": "2026-08-30T03:00:00.000Z", "live": true, "percentiles": ""}}, {"type": "Feature", "geometry": {"type": "Point", "coordinates": [-70.3844444444445, -42.6097222222222]}, "properties": {"series_id": 38719, "station_id": 6376, "station": "Chubut - Gualjaina", "river": "", "variable": "Altura hidrométrica 4-horaria", "var_id": 101, "unit": "", "network": "sat2", "procedure": "", "n_obs": 16, "last_seen": "2026-08-30T15:00:00.000Z", "live": true, "percentiles": ""}}, {"type": "Feature", "geometry": {"type": "Point", "coordinates": [-71.66, -44.2402777777778]}, "properties": {"series_id": 38810, "station_id": 7306, "station": "Pico - Frontera", "river": "", "variable": "Altura hidrométrica 4-horaria", "var_id": 101, "unit": "", "network": "sat2", "procedure": "", "n_obs": 17, "last_seen": "2026-08-30T19:00:00.000Z", "live": true, "percentiles": ""}}, {"type": "Feature", "geometry": {"type": "Point", "coordinates": [-67.2327777777778, -54.5269444444444]}, "properties": {"series_id": 33250, "station_id": 6718, "station": "Lago Fagnano – Puerto Tolhuin ", "river": "", "variable": "Altura hidrométrica", "var_id": 2, "unit": "", "network": "sat2", "procedure": "", "n_obs": 71, "last_seen": "2026-08-31T00:00:00.000Z", "live": true, "percentiles": ""}}, {"type": "Feature", "geometry": {"type": "Point", "coordinates": [-59.6386111111111, -30.7325]}, "properties": {"series_id": 37873, "station_id": 6354, "station": "Paraná - La Paz", "river": "", "variable": "Altura hidrométrica media diaria", "var_id": 39, "unit": "", "network": "sat2", "procedure": "", "n_obs": 2, "last_seen": "2026-08-29T03:00:00.000Z", "live": true, "percentiles": ""}}, {"type": "Feature", "geometry": {"type": "Point", "coordinates": [-71.5361111111111, -41.5158333333333]}, "properties": {"series_id": 37020, "station_id": 7289, "station": "Manso - Steffen", "river": "", "variable": "Altura hidrométrica", "var_id": 2, "unit": "", "network": "sat2", "procedure": "", "n_obs": 8, "last_seen": "2026-08-30T19:00:00.000Z", "live": true, "percentiles": ""}}, {"type": "Feature", "geometry": {"type": "Point", "coordinates": [-63.9333333333333, -27.6966666666667]}, "properties": {"series_id": 38502, "station_id": 6480, "station": "Canal - Jume Esquina", "river": "", "variable": "Altura hidrométrica 4-horaria", "var_id": 101, "unit": "", "network": "sat2", "procedure": "", "n_obs": 17, "last_seen": "2026-08-30T19:00:00.000Z", "live": true, "percentiles": ""}}, {"type": "Feature", "geometry": {"type": "Point", "coordinates": [-59.1783333333333, -34.5894444444444]}, "properties": {"series_id": 6936, "station_id": 2128, "station": "Lujan - Lujan", "river": "", "variable": "Altura hidrométrica", "var_id": 2, "unit": "", "network": "sat2", "procedure": "", "n_obs": 71, "last_seen": "2026-08-31T00:00:00.000Z", "live": true, "percentiles": ""}}, {"type": "Feature", "geometry": {"type": "Point", "coordinates": [-54.91305, -27.730627]}, "properties": {"series_id": 26306, "station_id": 64, "station": "Panambí", "river": "URUGUAY", "variable": "Altura hidrométrica media diaria", "var_id": 39, "unit": "", "network": "alturas_prefe", "procedure": "", "n_obs": 2, "last_seen": "2026-08-29T03:00:00.000Z", "live": true, "percentiles": true}}, {"type": "Feature", "geometry": {"type": "Point", "coordinates": [-65.9977777777778, -27.4333333333333]}, "properties": {"series_id": 33952, "station_id": 6744, "station": "Del Campo - Cabo San Miguel", "river": "", "variable": "Altura hidrométrica", "var_id": 2, "unit": "", "network": "sat2", "procedure": "", "n_obs": 14, "last_seen": "2026-08-30T07:00:00.000Z", "live": true, "percentiles": ""}}, {"type": "Feature", "geometry": {"type": "Point", "coordinates": [-66.4963888888889, -35.1686111111111]}, "properties": {"series_id": 6876, "station_id": 2180, "station": "Desaguadero - Canalejas", "river": "", "variable": "Altura hidrométrica", "var_id": 2, "unit": "", "network": "sat2", "procedure": "", "n_obs": 17, "last_seen": "2026-08-30T19:00:00.000Z", "live": true, "percentiles": ""}}, {"type": "Feature", "geometry": {"type": "Point", "coordinates": [-54.5941666666667, -25.6047222222222]}, "properties": {"series_id": 37065, "station_id": 7303, "station": "Paraná - Ita Cajón", "river": "", "variable": "Altura hidrométrica", "var_id": 2, "unit": "", "network": "sat2", "procedure": "", "n_obs": 119, "last_seen": "2026-08-30T23:30:00.000Z", "live": true, "percentiles": false}}, {"type": "Feature", "geometry": {"type": "Point", "coordinates": [-59.5747222222222, -35.4594444444445]}, "properties": {"series_id": 38426, "station_id": 2838, "station": "Aº Saladillo - RN Nº205", "river": "", "variable": "Altura hidrométrica 4-horaria", "var_id": 101, "unit": "", "network": "sat2", "procedure": "", "n_obs": 17, "last_seen": "2026-08-30T19:00:00.000Z", "live": true, "percentiles": ""}}, {"type": "Feature", "geometry": {"type": "Point", "coordinates": [-64.9813888888889, -38.8216666666667]}, "properties": {"series_id": 26486, "station_id": 2160, "station": "Colorado - Pichi Mahuida", "river": "", "variable": "Altura hidrométrica media diaria", "var_id": 39, "unit": "", "network": "sat2", "procedure": "", "n_obs": 2, "last_seen": "2026-08-29T03:00:00.000Z", "live": true, "percentiles": false}}, {"type": "Feature", "geometry": {"type": "Point", "coordinates": [-60.0758333333333, -27.0722222222222]}, "properties": {"series_id": 38218, "station_id": 7204, "station": "CIRHBAS - PF EL AGUARA", "river": "", "variable": "Altura hidrométrica media diaria", "var_id": 39, "unit": "", "network": "sat2", "procedure": "", "n_obs": 2, "last_seen": "2026-08-29T03:00:00.000Z", "live": true, "percentiles": ""}}, {"type": "Feature", "geometry": {"type": "Point", "coordinates": [-62.5236111111111, -22.3775]}, "properties": {"series_id": 37849, "station_id": 2846, "station": "Pilcomayo - Misión La Paz", "river": "", "variable": "Altura hidrométrica media diaria", "var_id": 39, "unit": "", "network": "sat2", "procedure": "", "n_obs": 2, "last_seen": "2026-08-29T03:00:00.000Z", "live": true, "percentiles": false}}, {"type": "Feature", "geometry": {"type": "Point", "coordinates": [-64.6527777777778, -22.1902777777778]}, "properties": {"series_id": 38611, "station_id": 6678, "station": "Bermejo - Alarache", "river": "", "variable": "Altura hidrométrica 4-horaria", "var_id": 101, "unit": "", "network": "sat2", "procedure": "", "n_obs": 17, "last_seen": "2026-08-30T19:00:00.000Z", "live": true, "percentiles": false}}, {"type": "Feature", "geometry": {"type": "Point", "coordinates": [-65.8494444444444, -22.9008333333333]}, "properties": {"series_id": 33426, "station_id": 6738, "station": "Miraflores - Sayate", "river": "", "variable": "Altura hidrométrica", "var_id": 2, "unit": "", "network": "sat2", "procedure": "", "n_obs": 17, "last_seen": "2026-08-30T19:00:00.000Z", "live": true, "percentiles": false}}, {"type": "Feature", "geometry": {"type": "Point", "coordinates": [-67.4261111111111, -35.6361111111111]}, "properties": {"series_id": 38479, "station_id": 6421, "station": "Atuel - Paso de Loro", "river": "", "variable": "Altura hidrométrica 4-horaria", "var_id": 101, "unit": "", "network": "sat2", "procedure": "", "n_obs": 17, "last_seen": "2026-08-30T19:00:00.000Z", "live": true, "percentiles": false}}, {"type": "Feature", "geometry": {"type": "Point", "coordinates": [-59.6381167, -30.73419972]}, "properties": {"series_id": 26268, "station_id": 26, "station": "La Paz", "river": "PARANAINF", "variable": "Altura hidrométrica media diaria", "var_id": 39, "unit": "", "network": "alturas_prefe", "procedure": "", "n_obs": 2, "last_seen": "2026-08-29T03:00:00.000Z", "live": true, "percentiles": ""}}, {"type": "Feature", "geometry": {"type": "Point", "coordinates": [-59.4994444444444, -34.2405555555556]}, "properties": {"series_id": 34887, "station_id": 2215, "station": "Río Areco - San Antonio de Are", "river": "", "variable": "Caudal medio diario", "var_id": 40, "unit": "", "network": "sat2", "procedure": "", "n_obs": 2, "last_seen": "2026-08-29T03:00:00.000Z", "live": true, "percentiles": ""}}, {"type": "Feature", "geometry": {"type": "Point", "coordinates": [-59.4994444444444, -34.2405555555556]}, "properties": {"series_id": 26532, "station_id": 2215, "station": "Río Areco - San Antonio de Are", "river": "", "variable": "Altura hidrométrica media diaria", "var_id": 39, "unit": "", "network": "sat2", "procedure": "", "n_obs": 2, "last_seen": "2026-08-29T03:00:00.000Z", "live": true, "percentiles": false}}, {"type": "Feature", "geometry": {"type": "Point", "coordinates": [-71.6194444444444, -42.0972222222222]}, "properties": {"series_id": 33394, "station_id": 6649, "station": "Lago Puelo - Lago Puelo", "river": "", "variable": "Altura hidrométrica", "var_id": 2, "unit": "", "network": "sat2", "procedure": "", "n_obs": 71, "last_seen": "2026-08-31T00:00:00.000Z", "live": true, "percentiles": ""}}, {"type": "Feature", "geometry": {"type": "Point", "coordinates": [-72.3111111111111, -51.0297222222222]}, "properties": {"series_id": 33066, "station_id": 6667, "station": "Vizcachas - Limite con Chile", "river": "", "variable": "Altura hidrométrica", "var_id": 2, "unit": "", "network": "sat2", "procedure": "", "n_obs": 16, "last_seen": "2026-08-30T19:00:00.000Z", "live": true, "percentiles": ""}}, {"type": "Feature", "geometry": {"type": "Point", "coordinates": [-58.4268, -33.9017]}, "properties": {"series_id": 6071, "station_id": 1843, "station": "Uruguay", "river": "Río de la Plata", "variable": "Altura hidrométrica", "var_id": 2, "unit": "", "network": "puntos_FDelta", "procedure": "", "n_obs": 72, "last_seen": "2026-08-31T01:00:00.000Z", "live": true, "percentiles": ""}}, {"type": "Feature", "geometry": {"type": "Point", "coordinates": [-62.1211111111111, -34.2419444444444]}, "properties": {"series_id": 38624, "station_id": 6627, "station": "Compuerta Alternativa Norte AD", "river": "", "variable": "Altura hidrométrica 4-horaria", "var_id": 101, "unit": "", "network": "sat2", "procedure": "", "n_obs": 17, "last_seen": "2026-08-30T19:00:00.000Z", "live": true, "percentiles": ""}}, {"type": "Feature", "geometry": {"type": "Point", "coordinates": [-56.5422222222222, -28.4166666666667]}, "properties": {"series_id": 26561, "station_id": 2731, "station": "Aguapey - La Sirena", "river": "", "variable": "Altura hidrométrica media diaria", "var_id": 39, "unit": "", "network": "sat2", "procedure": "", "n_obs": 2, "last_seen": "2026-08-29T03:00:00.000Z", "live": true, "percentiles": ""}}, {"type": "Feature", "geometry": {"type": "Point", "coordinates": [-58.3838, -34.2114]}, "properties": {"series_id": 6065, "station_id": 1837, "station": "LaBarquita", "river": "Río de la Plata", "variable": "Altura hidrométrica", "var_id": 2, "unit": "", "network": "puntos_FDelta", "procedure": "", "n_obs": 72, "last_seen": "2026-08-31T01:00:00.000Z", "live": true, "percentiles": ""}}, {"type": "Feature", "geometry": {"type": "Point", "coordinates": [-57.5655555555556, -29.2969444444444]}, "properties": {"series_id": 38695, "station_id": 6735, "station": "Miriñay - San Roquito", "river": "", "variable": "Altura hidrométrica 4-horaria", "var_id": 101, "unit": "", "network": "sat2", "procedure": "", "n_obs": 17, "last_seen": "2026-08-30T19:00:00.000Z", "live": true, "percentiles": ""}}, {"type": "Feature", "geometry": {"type": "Point", "coordinates": [-69.4022222222222, -38.5302777777778]}, "properties": {"series_id": 38384, "station_id": 2210, "station": "Neuquen - Paso de Indios", "river": "", "variable": "Altura hidrométrica 4-horaria", "var_id": 101, "unit": "", "network": "sat2", "procedure": "", "n_obs": 16, "last_seen": "2026-08-30T15:00:00.000Z", "live": true, "percentiles": false}}, {"type": "Feature", "geometry": {"type": "Point", "coordinates": [-58.81852419, -27.95412346]}, "properties": {"series_id": 26263, "station_id": 21, "station": "Empedrado", "river": "PARANAINF", "variable": "Altura hidrométrica media diaria", "var_id": 39, "unit": "", "network": "alturas_prefe", "procedure": "", "n_obs": 2, "last_seen": "2026-08-29T03:00:00.000Z", "live": true, "percentiles": ""}}, {"type": "Feature", "geometry": {"type": "Point", "coordinates": [-57.936945, -31.27547]}, "properties": {"series_id": 26674, "station_id": 77, "station": "Salto Grande Arriba", "river": "URUGUAY", "variable": "Caudal medio diario", "var_id": 40, "unit": "", "network": "alturas_prefe", "procedure": "", "n_obs": 2, "last_seen": "2026-08-29T03:00:00.000Z", "live": true, "percentiles": ""}}, {"type": "Feature", "geometry": {"type": "Point", "coordinates": [-60.3108333333333, -36.8791666666667]}, "properties": {"series_id": 38231, "station_id": 7242, "station": "Aº Tapalqué - Av de los Trabaj", "river": "", "variable": "Altura hidrométrica media diaria", "var_id": 39, "unit": "", "network": "sat2", "procedure": "", "n_obs": 2, "last_seen": "2026-08-29T03:00:00.000Z", "live": true, "percentiles": ""}}, {"type": "Feature", "geometry": {"type": "Point", "coordinates": [-64.2738888888889, -30.8491666666667]}, "properties": {"series_id": 38814, "station_id": 7382, "station": "Santa Catalina - Colonia Hogar", "river": "", "variable": "Altura hidrométrica 4-horaria", "var_id": 101, "unit": "", "network": "sat2", "procedure": "", "n_obs": 17, "last_seen": "2026-08-30T19:00:00.000Z", "live": true, "percentiles": false}}, {"type": "Feature", "geometry": {"type": "Point", "coordinates": [-68.5313888888889, -53.8416666666667]}, "properties": {"series_id": 37952, "station_id": 6639, "station": "Afluente Río Grande       ", "river": "", "variable": "Altura hidrométrica media diaria", "var_id": 39, "unit": "", "network": "sat2", "procedure": "", "n_obs": 2, "last_seen": "2026-08-29T03:00:00.000Z", "live": true, "percentiles": ""}}, {"type": "Feature", "geometry": {"type": "Point", "coordinates": [-60.7256705696322, -32.7336256031375]}, "properties": {"series_id": 26275, "station_id": 33, "station": "San Lorenzo (San Martín)", "river": "PARANAINF", "variable": "Altura hidrométrica media diaria", "var_id": 39, "unit": "", "network": "alturas_prefe", "procedure": "", "n_obs": 2, "last_seen": "2026-08-29T03:00:00.000Z", "live": true, "percentiles": true}}, {"type": "Feature", "geometry": {"type": "Point", "coordinates": [-68.2205555555556, -28.7436111111111]}, "properties": {"series_id": 34088, "station_id": 6657, "station": "Vinchina - Vinchina", "river": "", "variable": "Altura hidrométrica", "var_id": 2, "unit": "", "network": "sat2", "procedure": "", "n_obs": 17, "last_seen": "2026-08-30T23:00:00.000Z", "live": true, "percentiles": ""}}, {"type": "Feature", "geometry": {"type": "Point", "coordinates": [-59.8938888888889, -36.8311111111111]}, "properties": {"series_id": 38674, "station_id": 6655, "station": "Aº Azul - Seminario Diocesano", "river": "", "variable": "Altura hidrométrica 4-horaria", "var_id": 101, "unit": "", "network": "sat2", "procedure": "", "n_obs": 17, "last_seen": "2026-08-30T19:00:00.000Z", "live": true, "percentiles": ""}}, {"type": "Feature", "geometry": {"type": "Point", "coordinates": [-65.8230555555556, -26.0119444444444]}, "properties": {"series_id": 38795, "station_id": 7286, "station": "Las Conchas - La Punilla RP44", "river": "", "variable": "Altura hidrométrica 4-horaria", "var_id": 101, "unit": "", "network": "sat2", "procedure": "", "n_obs": 17, "last_seen": "2026-08-30T19:00:00.000Z", "live": true, "percentiles": false}}, {"type": "Feature", "geometry": {"type": "Point", "coordinates": [-60.8658333333333, -32.6733333333333]}, "properties": {"series_id": 6829, "station_id": 2204, "station": "Carcarañá - Pueblo Andino", "river": "", "variable": "Altura hidrométrica", "var_id": 2, "unit": "", "network": "sat2", "procedure": "", "n_obs": 71, "last_seen": "2026-08-31T00:00:00.000Z", "live": true, "percentiles": ""}}, {"type": "Feature", "geometry": {"type": "Point", "coordinates": [-64.0980555555555, -28.0144444444444]}, "properties": {"series_id": 38139, "station_id": 6651, "station": "Dulce - Tuhama", "river": "", "variable": "Altura hidrométrica media diaria", "var_id": 39, "unit": "", "network": "sat2", "procedure": "", "n_obs": 2, "last_seen": "2026-08-29T03:00:00.000Z", "live": true, "percentiles": false}}, {"type": "Feature", "geometry": {"type": "Point", "coordinates": [-67.0208333333333, -28.2613888888889]}, "properties": {"series_id": 33523, "station_id": 6661, "station": "Abaucán - Limite con La Rioja", "river": "", "variable": "Altura hidrométrica", "var_id": 2, "unit": "", "network": "sat2", "procedure": "", "n_obs": 17, "last_seen": "2026-08-30T23:00:00.000Z", "live": true, "percentiles": ""}}, {"type": "Feature", "geometry": {"type": "Point", "coordinates": [-59.3244444444444, -30.2172222222222]}, "properties": {"series_id": 26589, "station_id": 2836, "station": "Aº Barrancas - Paso La Llana", "river": "", "variable": "Altura hidrométrica media diaria", "var_id": 39, "unit": "", "network": "sat2", "procedure": "", "n_obs": 2, "last_seen": "2026-08-29T03:00:00.000Z", "live": true, "percentiles": ""}}, {"type": "Feature", "geometry": {"type": "Point", "coordinates": [-60.2822222222222, -30.8547222222222]}, "properties": {"series_id": 38230, "station_id": 7241, "station": "Aº Saladillo Dulce - RP Nº 81", "river": "", "variable": "Altura hidrométrica media diaria", "var_id": 39, "unit": "", "network": "sat2", "procedure": "", "n_obs": 2, "last_seen": "2026-08-29T03:00:00.000Z", "live": true, "percentiles": false}}, {"type": "Feature", "geometry": {"type": "Point", "coordinates": [-68.1177777777778, -53.9288888888889]}, "properties": {"series_id": 33067, "station_id": 6672, "station": "Ona - Ona - RP B", "river": "", "variable": "Altura hidrométrica", "var_id": 2, "unit": "", "network": "sat2", "procedure": "", "n_obs": 15, "last_seen": "2026-08-30T23:00:00.000Z", "live": true, "percentiles": ""}}, {"type": "Feature", "geometry": {"type": "Point", "coordinates": [-62.9961111111111, -30.9641666666667]}, "properties": {"series_id": 38514, "station_id": 6263, "station": "Primero (Suquía) Camino Secund", "river": "", "variable": "Altura hidrométrica 4-horaria", "var_id": 101, "unit": "", "network": "sat2", "procedure": "", "n_obs": 17, "last_seen": "2026-08-30T19:00:00.000Z", "live": true, "percentiles": false}}, {"type": "Feature", "geometry": {"type": "Point", "coordinates": [-71.9680555555556, -47.3758333333333]}, "properties": {"series_id": 9494, "station_id": 2844, "station": "Lago Pueyrredón - Pueyrredón", "river": "", "variable": "Altura hidrométrica", "var_id": 2, "unit": "", "network": "sat2", "procedure": "", "n_obs": 6, "last_seen": "2026-08-30T19:00:00.000Z", "live": true, "percentiles": false}}, {"type": "Feature", "geometry": {"type": "Point", "coordinates": [-67.2866666666667, -43.7233333333333]}, "properties": {"series_id": 38245, "station_id": 7258, "station": "Chubut - Las Plumas", "river": "", "variable": "Altura hidrométrica media diaria", "var_id": 39, "unit": "", "network": "sat2", "procedure": "", "n_obs": 2, "last_seen": "2026-08-29T03:00:00.000Z", "live": true, "percentiles": ""}}, {"type": "Feature", "geometry": {"type": "Point", "coordinates": [-59.0108657589595, -34.0987818311696]}, "properties": {"series_id": 26282, "station_id": 40, "station": "Zárate", "river": "PARANADELASPALMAS", "variable": "Altura hidrométrica media diaria", "var_id": 39, "unit": "", "network": "alturas_prefe", "procedure": "", "n_obs": 2, "last_seen": "2026-08-29T03:00:00.000Z", "live": true, "percentiles": ""}}, {"type": "Feature", "geometry": {"type": "Point", "coordinates": [-57.6502777777778, -25.3719444444444]}, "properties": {"series_id": 26459, "station_id": 2133, "station": "Paraguay - Pto. Pilcomayo", "river": "", "variable": "Altura hidrométrica media diaria", "var_id": 39, "unit": "", "network": "sat2", "procedure": "", "n_obs": 2, "last_seen": "2026-08-29T03:00:00.000Z", "live": true, "percentiles": ""}}, {"type": "Feature", "geometry": {"type": "Point", "coordinates": [-55.65, -28.1833333333333]}, "properties": {"series_id": 26664, "station_id": 67, "station": "Garruchos", "river": "URUGUAY", "variable": "Caudal medio diario", "var_id": 40, "unit": "", "network": "alturas_prefe", "procedure": "", "n_obs": 2, "last_seen": "2026-08-29T03:00:00.000Z", "live": true, "percentiles": true}}, {"type": "Feature", "geometry": {"type": "Point", "coordinates": [-67.1947222222222, -27.6125]}, "properties": {"series_id": 38702, "station_id": 6684, "station": "Piedra Larga - HID - Sitio 1", "river": "", "variable": "Altura hidrométrica 4-horaria", "var_id": 101, "unit": "", "network": "sat2", "procedure": "", "n_obs": 17, "last_seen": "2026-08-30T19:00:00.000Z", "live": true, "percentiles": ""}}, {"type": "Feature", "geometry": {"type": "Point", "coordinates": [-69.3163888888889, -34.6686111111111]}, "properties": {"series_id": 8233, "station_id": 2608, "station": "Diamante - La Jaula", "river": "", "variable": "Altura hidrométrica", "var_id": 2, "unit": "", "network": "sat2", "procedure": "", "n_obs": 22, "last_seen": "2026-08-30T18:00:00.000Z", "live": true, "percentiles": ""}}, {"type": "Feature", "geometry": {"type": "Point", "coordinates": [-69.7672222222222, -35.1975]}, "properties": {"series_id": 26462, "station_id": 2136, "station": "Salado - Cañada Ancha", "river": "", "variable": "Altura hidrométrica media diaria", "var_id": 39, "unit": "", "network": "sat2", "procedure": "", "n_obs": 2, "last_seen": "2026-08-29T03:00:00.000Z", "live": true, "percentiles": ""}}, {"type": "Feature", "geometry": {"type": "Point", "coordinates": [-67.1866666666667, -36.2413888888889]}, "properties": {"series_id": 38111, "station_id": 6518, "station": "Atuel - La Puntilla", "river": "", "variable": "Altura hidrométrica media diaria", "var_id": 39, "unit": "", "network": "sat2", "procedure": "", "n_obs": 2, "last_seen": "2026-08-29T03:00:00.000Z", "live": true, "percentiles": ""}}, {"type": "Feature", "geometry": {"type": "Point", "coordinates": [-58.3756, -34.1624]}, "properties": {"series_id": 6060, "station_id": 1831, "station": "BarcaGrande", "river": "Río de la Plata", "variable": "Altura hidrométrica", "var_id": 2, "unit": "", "network": "puntos_FDelta", "procedure": "", "n_obs": 72, "last_seen": "2026-08-31T01:00:00.000Z", "live": true, "percentiles": ""}}, {"type": "Feature", "geometry": {"type": "Point", "coordinates": [-65.1619444444444, -26.7191666666667]}, "properties": {"series_id": 33966, "station_id": 6506, "station": "Salí - Alta Gracia", "river": "", "variable": "Altura hidrométrica", "var_id": 2, "unit": "", "network": "sat2", "procedure": "", "n_obs": 71, "last_seen": "2026-08-31T00:00:00.000Z", "live": true, "percentiles": false}}, {"type": "Feature", "geometry": {"type": "Point", "coordinates": [-58.5052777777778, -27.8013888888889]}, "properties": {"series_id": 36920, "station_id": 7266, "station": "Empedrado-Ruta Provincial Nº6", "river": "", "variable": "Altura hidrométrica", "var_id": 2, "unit": "", "network": "sat2", "procedure": "", "n_obs": 17, "last_seen": "2026-08-30T19:00:00.000Z", "live": true, "percentiles": false}}, {"type": "Feature", "geometry": {"type": "Point", "coordinates": [-60.6432219715378, -32.0715615377843]}, "properties": {"series_id": 31, "station_id": 31, "station": "Diamante", "river": "PARANAINF", "variable": "Altura hidrométrica", "var_id": 2, "unit": "", "network": "alturas_prefe", "procedure": "", "n_obs": 3, "last_seen": "2026-08-30T03:00:00.000Z", "live": true, "percentiles": ""}}, {"type": "Feature", "geometry": {"type": "Point", "coordinates": [-69.475, -45.9861111111111]}, "properties": {"series_id": 33062, "station_id": 6582, "station": "Senguerr - Los Molinos", "river": "", "variable": "Altura hidrométrica", "var_id": 2, "unit": "", "network": "sat2", "procedure": "", "n_obs": 17, "last_seen": "2026-08-30T23:00:00.000Z", "live": true, "percentiles": ""}}, {"type": "Feature", "geometry": {"type": "Point", "coordinates": [-65.5238888888889, -25.5091666666667]}, "properties": {"series_id": 38580, "station_id": 6577, "station": "Las Conchas - Coropampa", "river": "", "variable": "Altura hidrométrica 4-horaria", "var_id": 101, "unit": "", "network": "sat2", "procedure": "", "n_obs": 17, "last_seen": "2026-08-30T19:00:00.000Z", "live": true, "percentiles": false}}, {"type": "Feature", "geometry": {"type": "Point", "coordinates": [-60.3230555555556, -33.3505555555556]}, "properties": {"series_id": 37838, "station_id": 6401, "station": "Aº Del Medio - Motomel", "river": "", "variable": "Altura hidrométrica media diaria", "var_id": 39, "unit": "", "network": "sat2", "procedure": "", "n_obs": 2, "last_seen": "2026-08-29T03:00:00.000Z", "live": true, "percentiles": false}}, {"type": "Feature", "geometry": {"type": "Point", "coordinates": [-59.3625, -26.3341666666667]}, "properties": {"series_id": 6697, "station_id": 2188, "station": "Bermejo - El Colorado", "river": "", "variable": "Altura hidrométrica", "var_id": 2, "unit": "", "network": "sat2", "procedure": "", "n_obs": 17, "last_seen": "2026-08-30T20:00:00.000Z", "live": true, "percentiles": false}}, {"type": "Feature", "geometry": {"type": "Point", "coordinates": [-65.1516666666667, -33.9186111111111]}, "properties": {"series_id": 38169, "station_id": 6445, "station": "Quinto - Justo Daract", "river": "", "variable": "Altura hidrométrica media diaria", "var_id": 39, "unit": "", "network": "sat2", "procedure": "", "n_obs": 2, "last_seen": "2026-08-29T03:00:00.000Z", "live": true, "percentiles": ""}}, {"type": "Feature", "geometry": {"type": "Point", "coordinates": [-59.53663483, -30.01924089]}, "properties": {"series_id": 26267, "station_id": 25, "station": "Esquina", "river": "PARANAINF", "variable": "Altura hidrométrica media diaria", "var_id": 39, "unit": "", "network": "alturas_prefe", "procedure": "", "n_obs": 2, "last_seen": "2026-08-29T03:00:00.000Z", "live": true, "percentiles": ""}}, {"type": "Feature", "geometry": {"type": "Point", "coordinates": [-64.0911111111111, -30.9702777777778]}, "properties": {"series_id": 33948, "station_id": 6745, "station": "Guanasacate - Jesús Maria", "river": "", "variable": "Altura hidrométrica", "var_id": 2, "unit": "", "network": "sat2", "procedure": "", "n_obs": 71, "last_seen": "2026-08-31T00:00:00.000Z", "live": true, "percentiles": false}}, {"type": "Feature", "geometry": {"type": "Point", "coordinates": [-59.6497183332918, -33.6745267329027]}, "properties": {"series_id": 38, "station_id": 38, "station": "San Pedro", "river": "PARANAINF", "variable": "Altura hidrométrica", "var_id": 2, "unit": "", "network": "alturas_prefe", "procedure": "", "n_obs": 3, "last_seen": "2026-08-30T03:00:00.000Z", "live": true, "percentiles": true}}, {"type": "Feature", "geometry": {"type": "Point", "coordinates": [-68.2411111111111, -29.3488888888889]}, "properties": {"series_id": 33281, "station_id": 6466, "station": "Vinchina - Los Palacios -RN 40", "river": "", "variable": "Altura hidrométrica", "var_id": 2, "unit": "", "network": "sat2", "procedure": "", "n_obs": 71, "last_seen": "2026-08-31T00:00:00.000Z", "live": true, "percentiles": ""}}, {"type": "Feature", "geometry": {"type": "Point", "coordinates": [-59.7638888888889, -32.3947222222222]}, "properties": {"series_id": 9412, "station_id": 2837, "station": "Nogoya - RN Nº12", "river": "", "variable": "Altura hidrométrica", "var_id": 2, "unit": "", "network": "sat2", "procedure": "", "n_obs": 71, "last_seen": "2026-08-31T00:00:00.000Z", "live": true, "percentiles": ""}}, {"type": "Feature", "geometry": {"type": "Point", "coordinates": [-60.4261111111111, -32.3058333333333]}, "properties": {"series_id": 37851, "station_id": 6423, "station": "Aº Del Doll - RN 11", "river": "", "variable": "Altura hidrométrica media diaria", "var_id": 39, "unit": "", "network": "sat2", "procedure": "", "n_obs": 2, "last_seen": "2026-08-29T03:00:00.000Z", "live": true, "percentiles": false}}, {"type": "Feature", "geometry": {"type": "Point", "coordinates": [-64.4636111111111, -22.4925]}, "properties": {"series_id": 36858, "station_id": 7247, "station": "Bermejo - Balapuca MET", "river": "", "variable": "Altura hidrométrica", "var_id": 2, "unit": "", "network": "sat2", "procedure": "", "n_obs": 2, "last_seen": "2026-08-28T19:00:00.000Z", "live": true, "percentiles": ""}}, {"type": "Feature", "geometry": {"type": "Point", "coordinates": [-58.5583333333333, -28.995]}, "properties": {"series_id": 9021, "station_id": 2832, "station": "Corriente - Paso Lucero", "river": "", "variable": "Altura hidrométrica", "var_id": 2, "unit": "", "network": "sat2", "procedure": "", "n_obs": 71, "last_seen": "2026-08-31T00:00:00.000Z", "live": true, "percentiles": false}}, {"type": "Feature", "geometry": {"type": "Point", "coordinates": [-60.6255555555556, -32.9513888888889]}, "properties": {"series_id": 29519, "station_id": 5893, "station": "Paraná - Rosario", "river": "Paraná", "variable": "Altura hidrométrica media diaria", "var_id": 39, "unit": "", "network": "sat2", "procedure": "", "n_obs": 2, "last_seen": "2026-08-29T03:00:00.000Z", "live": true, "percentiles": false}}, {"type": "Feature", "geometry": {"type": "Point", "coordinates": [-57.7038888888889, -36.2811111111111]}, "properties": {"series_id": 38767, "station_id": 7252, "station": "Canal 9 - Autovia 2", "river": "", "variable": "Altura hidrométrica 4-horaria", "var_id": 101, "unit": "", "network": "sat2", "procedure": "", "n_obs": 17, "last_seen": "2026-08-30T19:00:00.000Z", "live": true, "percentiles": false}}, {"type": "Feature", "geometry": {"type": "Point", "coordinates": [-58.0166666666667, -31.4]}, "properties": {"series_id": 26321, "station_id": 79, "station": "Concordia", "river": "URUGUAY", "variable": "Altura hidrométrica media diaria", "var_id": 39, "unit": "", "network": "alturas_prefe", "procedure": "", "n_obs": 2, "last_seen": "2026-08-29T03:00:00.000Z", "live": true, "percentiles": ""}}, {"type": "Feature", "geometry": {"type": "Point", "coordinates": [-66.71, -34.0869444444444]}, "properties": {"series_id": 38003, "station_id": 6483, "station": "Desaguadero - Salto de la Tosc", "river": "", "variable": "Altura hidrométrica media diaria", "var_id": 39, "unit": "", "network": "sat2", "procedure": "", "n_obs": 2, "last_seen": "2026-08-29T03:00:00.000Z", "live": true, "percentiles": ""}}, {"type": "Feature", "geometry": {"type": "Point", "coordinates": [-57.6333333333333, -30.25]}, "properties": {"series_id": 74, "station_id": 74, "station": "Monte Caseros", "river": "URUGUAY", "variable": "Altura hidrométrica", "var_id": 2, "unit": "", "network": "alturas_prefe", "procedure": "", "n_obs": 3, "last_seen": "2026-08-30T03:00:00.000Z", "live": true, "percentiles": true}}, {"type": "Feature", "geometry": {"type": "Point", "coordinates": [-60.6777777777778, -31.6302777777778]}, "properties": {"series_id": 34093, "station_id": 6685, "station": "Sis. Setúbal-Sta. Fé-La Guard.", "river": "", "variable": "Altura hidrométrica", "var_id": 2, "unit": "", "network": "sat2", "procedure": "", "n_obs": 71, "last_seen": "2026-08-31T00:00:00.000Z", "live": true, "percentiles": ""}}, {"type": "Feature", "geometry": {"type": "Point", "coordinates": [-58.55, -34.4333333333]}, "properties": {"series_id": 52, "station_id": 52, "station": "San Fernando", "river": "LUJAN", "variable": "Altura hidrométrica", "var_id": 2, "unit": "", "network": "alturas_prefe", "procedure": "", "n_obs": 71, "last_seen": "2026-08-30T23:45:00.000Z", "live": true, "percentiles": true}}, {"type": "Feature", "geometry": {"type": "Point", "coordinates": [-59.3244444444444, -30.2172222222222]}, "properties": {"series_id": 38433, "station_id": 2836, "station": "Aº Barrancas - Paso La Llana", "river": "", "variable": "Altura hidrométrica 4-horaria", "var_id": 101, "unit": "", "network": "sat2", "procedure": "", "n_obs": 17, "last_seen": "2026-08-30T19:00:00.000Z", "live": true, "percentiles": ""}}, {"type": "Feature", "geometry": {"type": "Point", "coordinates": [-58.7075, -30.3930555555556]}, "properties": {"series_id": 38223, "station_id": 7234, "station": "Aº Feliciano - Paso Correa RP2", "river": "", "variable": "Altura hidrométrica media diaria", "var_id": 39, "unit": "", "network": "sat2", "procedure": "", "n_obs": 2, "last_seen": "2026-08-29T03:00:00.000Z", "live": true, "percentiles": false}}, {"type": "Feature", "geometry": {"type": "Point", "coordinates": [-62.1211111111111, -34.2419444444444]}, "properties": {"series_id": 38040, "station_id": 6627, "station": "Compuerta Alternativa Norte AD", "river": "", "variable": "Altura hidrométrica media diaria", "var_id": 39, "unit": "", "network": "sat2", "procedure": "", "n_obs": 2, "last_seen": "2026-08-29T03:00:00.000Z", "live": true, "percentiles": ""}}, {"type": "Feature", "geometry": {"type": "Point", "coordinates": [-60.1088888888889, -35.0880555555556]}, "properties": {"series_id": 38691, "station_id": 6698, "station": "Salado RP Nº 51 - Achupallas", "river": "", "variable": "Altura hidrométrica 4-horaria", "var_id": 101, "unit": "", "network": "sat2", "procedure": "", "n_obs": 17, "last_seen": "2026-08-30T19:00:00.000Z", "live": true, "percentiles": false}}, {"type": "Feature", "geometry": {"type": "Point", "coordinates": [-59.3244444444444, -30.2172222222222]}, "properties": {"series_id": 9200, "station_id": 2836, "station": "Aº Barrancas - Paso La Llana", "river": "", "variable": "Altura hidrométrica", "var_id": 2, "unit": "", "network": "sat2", "procedure": "", "n_obs": 10, "last_seen": "2026-08-30T23:00:00.000Z", "live": true, "percentiles": false}}, {"type": "Feature", "geometry": {"type": "Point", "coordinates": [-55.581369, -28.119193]}, "properties": {"series_id": 26308, "station_id": 66, "station": "Puerto Concepción", "river": "URUGUAY", "variable": "Altura hidrométrica media diaria", "var_id": 39, "unit": "", "network": "alturas_prefe", "procedure": "", "n_obs": 2, "last_seen": "2026-08-29T03:00:00.000Z", "live": true, "percentiles": false}}, {"type": "Feature", "geometry": {"type": "Point", "coordinates": [-59.9755555555556, -28.1102777777778]}, "properties": {"series_id": 36732, "station_id": 7193, "station": "CIRHBAS - LIM LOS AMORES - CAN", "river": "", "variable": "Altura hidrométrica", "var_id": 2, "unit": "", "network": "sat2", "procedure": "", "n_obs": 71, "last_seen": "2026-08-31T00:00:00.000Z", "live": true, "percentiles": ""}}, {"type": "Feature", "geometry": {"type": "Point", "coordinates": [-58.5779747237367, -34.4159316389634]}, "properties": {"series_id": 26291, "station_id": 49, "station": "Tigre", "river": "LUJAN", "variable": "Altura hidrométrica media diaria", "var_id": 39, "unit": "", "network": "alturas_prefe", "procedure": "", "n_obs": 2, "last_seen": "2026-08-29T03:00:00.000Z", "live": true, "percentiles": ""}}, {"type": "Feature", "geometry": {"type": "Point", "coordinates": [-59.1961111111111, -27.2633333333333]}, "properties": {"series_id": 33681, "station_id": 6432, "station": "Negro - Laguna Blanca", "river": "", "variable": "Altura hidrométrica", "var_id": 2, "unit": "", "network": "sat2", "procedure": "", "n_obs": 71, "last_seen": "2026-08-31T00:00:00.000Z", "live": true, "percentiles": false}}, {"type": "Feature", "geometry": {"type": "Point", "coordinates": [-58.5091, -34.4193]}, "properties": {"series_id": 6069, "station_id": 1841, "station": "SanAntonio", "river": "Río de la Plata", "variable": "Altura hidrométrica", "var_id": 2, "unit": "", "network": "puntos_FDelta", "procedure": "", "n_obs": 72, "last_seen": "2026-08-31T01:00:00.000Z", "live": true, "percentiles": false}}, {"type": "Feature", "geometry": {"type": "Point", "coordinates": [-60.6432219715378, -32.0715615377843]}, "properties": {"series_id": 26273, "station_id": 31, "station": "Diamante", "river": "PARANAINF", "variable": "Altura hidrométrica media diaria", "var_id": 39, "unit": "", "network": "alturas_prefe", "procedure": "", "n_obs": 2, "last_seen": "2026-08-29T03:00:00.000Z", "live": true, "percentiles": ""}}, {"type": "Feature", "geometry": {"type": "Point", "coordinates": [-60.6288888888889, -30.3375]}, "properties": {"series_id": 38208, "station_id": 7187, "station": "CIRHBAS - LIM Aº RETOBADO - CRESPO", "river": "", "variable": "Altura hidrométrica media diaria", "var_id": 39, "unit": "", "network": "sat2", "procedure": "", "n_obs": 2, "last_seen": "2026-08-29T03:00:00.000Z", "live": true, "percentiles": false}}, {"type": "Feature", "geometry": {"type": "Point", "coordinates": [-55.1333333333333, -27.8833333333333]}, "properties": {"series_id": 914, "station_id": 65, "station": "San Javier", "river": "URUGUAY", "variable": "Caudal", "var_id": 4, "unit": "", "network": "alturas_prefe", "procedure": "", "n_obs": 3, "last_seen": "2026-08-30T03:00:00.000Z", "live": true, "percentiles": ""}}, {"type": "Feature", "geometry": {"type": "Point", "coordinates": [-68.6405555555556, -49.7769444444444]}, "properties": {"series_id": 38034, "station_id": 6535, "station": "Chico - Ruta Nac. Nº 3", "river": "", "variable": "Altura hidrométrica media diaria", "var_id": 39, "unit": "", "network": "sat2", "procedure": "", "n_obs": 2, "last_seen": "2026-08-29T03:00:00.000Z", "live": true, "percentiles": ""}}, {"type": "Feature", "geometry": {"type": "Point", "coordinates": [-68.8747222222222, -35.0986111111111]}, "properties": {"series_id": 38428, "station_id": 2732, "station": "Atuel - La Angostura", "river": "", "variable": "Altura hidrométrica 4-horaria", "var_id": 101, "unit": "", "network": "sat2", "procedure": "", "n_obs": 16, "last_seen": "2026-08-30T15:00:00.000Z", "live": true, "percentiles": false}}, {"type": "Feature", "geometry": {"type": "Point", "coordinates": [-54.5666666666667, -25.5833333333333]}, "properties": {"series_id": 26251, "station_id": 9, "station": "Puerto Iguazú", "river": "PARANAMED", "variable": "Altura hidrométrica media diaria", "var_id": 39, "unit": "", "network": "alturas_prefe", "procedure": "", "n_obs": 2, "last_seen": "2026-08-29T03:00:00.000Z", "live": true, "percentiles": ""}}, {"type": "Feature", "geometry": {"type": "Point", "coordinates": [-67.0163888888889, -27.6155555555556]}, "properties": {"series_id": 37950, "station_id": 6616, "station": "Dique Belén - Aguas Abajo", "river": "", "variable": "Altura hidrométrica media diaria", "var_id": 39, "unit": "", "network": "sat2", "procedure": "", "n_obs": 2, "last_seen": "2026-08-29T03:00:00.000Z", "live": true, "percentiles": ""}}, {"type": "Feature", "geometry": {"type": "Point", "coordinates": [-59.5147222222222, -30.3511111111111]}, "properties": {"series_id": 34086, "station_id": 6626, "station": "Guayquiraró - RN 12 - A°Curupí", "river": "", "variable": "Altura hidrométrica", "var_id": 2, "unit": "", "network": "sat2", "procedure": "", "n_obs": 7, "last_seen": "2026-08-30T23:00:00.000Z", "live": true, "percentiles": false}}, {"type": "Feature", "geometry": {"type": "Point", "coordinates": [-59.5747222222222, -35.4594444444445]}, "properties": {"series_id": 26591, "station_id": 2838, "station": "Aº Saladillo - RN Nº205", "river": "", "variable": "Altura hidrométrica media diaria", "var_id": 39, "unit": "", "network": "sat2", "procedure": "", "n_obs": 2, "last_seen": "2026-08-29T03:00:00.000Z", "live": true, "percentiles": ""}}, {"type": "Feature", "geometry": {"type": "Point", "coordinates": [-59.8938888888889, -36.8311111111111]}, "properties": {"series_id": 38117, "station_id": 6655, "station": "Aº Azul - Seminario Diocesano", "river": "", "variable": "Altura hidrométrica media diaria", "var_id": 39, "unit": "", "network": "sat2", "procedure": "", "n_obs": 2, "last_seen": "2026-08-29T03:00:00.000Z", "live": true, "percentiles": false}}, {"type": "Feature", "geometry": {"type": "Point", "coordinates": [-55.65, -28.1833333333333]}, "properties": {"series_id": 26309, "station_id": 67, "station": "Garruchos", "river": "URUGUAY", "variable": "Altura hidrométrica media diaria", "var_id": 39, "unit": "", "network": "alturas_prefe", "procedure": "", "n_obs": 2, "last_seen": "2026-08-29T03:00:00.000Z", "live": true, "percentiles": true}}, {"type": "Feature", "geometry": {"type": "Point", "coordinates": [-62.1688888888889, -31.9905555555556]}, "properties": {"series_id": 38164, "station_id": 6746, "station": "Canal San Antonio- RP Nº66", "river": "", "variable": "Altura hidrométrica media diaria", "var_id": 39, "unit": "", "network": "sat2", "procedure": "", "n_obs": 2, "last_seen": "2026-08-29T03:00:00.000Z", "live": true, "percentiles": ""}}, {"type": "Feature", "geometry": {"type": "Point", "coordinates": [-59.4738888888889, -28.7766666666667]}, "properties": {"series_id": 32023, "station_id": 6461, "station": "Aº Las Garzas - RN Nº 11", "river": "", "variable": "Altura hidrométrica", "var_id": 2, "unit": "", "network": "sat2", "procedure": "", "n_obs": 17, "last_seen": "2026-08-30T19:00:00.000Z", "live": true, "percentiles": false}}, {"type": "Feature", "geometry": {"type": "Point", "coordinates": [-72.8694444444444, -49.3944444444444]}, "properties": {"series_id": 26572, "station_id": 2812, "station": "Lago Viedma - Lago Viedma", "river": "", "variable": "Altura hidrométrica media diaria", "var_id": 39, "unit": "", "network": "sat2", "procedure": "", "n_obs": 2, "last_seen": "2026-08-29T03:00:00.000Z", "live": true, "percentiles": ""}}, {"type": "Feature", "geometry": {"type": "Point", "coordinates": [-56.633977, -29.18062]}, "properties": {"series_id": 70, "station_id": 70, "station": "La Cruz", "river": "URUGUAY", "variable": "Altura hidrométrica", "var_id": 2, "unit": "", "network": "alturas_prefe", "procedure": "", "n_obs": 3, "last_seen": "2026-08-30T03:00:00.000Z", "live": true, "percentiles": ""}}, {"type": "Feature", "geometry": {"type": "Point", "coordinates": [-58.404, -34.2289]}, "properties": {"series_id": 6067, "station_id": 1839, "station": "Mini", "river": "Río de la Plata", "variable": "Altura hidrométrica", "var_id": 2, "unit": "", "network": "puntos_FDelta", "procedure": "", "n_obs": 72, "last_seen": "2026-08-31T01:00:00.000Z", "live": true, "percentiles": ""}}, {"type": "Feature", "geometry": {"type": "Point", "coordinates": [-58.3096056, -34.7383417]}, "properties": {"series_id": 3348, "station_id": 1743, "station": "Arroyo Las Piedras - Rep. del Líbano", "river": "Cuenca Sarandí-Santo Domingo", "variable": "Altura hidrométrica", "var_id": 2, "unit": "", "network": "ina_delta", "procedure": "", "n_obs": 849, "last_seen": "2026-08-31T00:15:00.000Z", "live": true, "percentiles": ""}}, {"type": "Feature", "geometry": {"type": "Point", "coordinates": [-60.5469444444444, -29.3880555555556]}, "properties": {"series_id": 38733, "station_id": 7185, "station": "CIRHBAS - LIM  LAGUNA EL BONETE", "river": "", "variable": "Altura hidrométrica 4-horaria", "var_id": 101, "unit": "", "network": "sat2", "procedure": "", "n_obs": 16, "last_seen": "2026-08-30T15:00:00.000Z", "live": true, "percentiles": ""}}, {"type": "Feature", "geometry": {"type": "Point", "coordinates": [-63.645, -34.7627777777778]}, "properties": {"series_id": 38456, "station_id": 2809, "station": "Quinto - RP Nº26", "river": "", "variable": "Altura hidrométrica 4-horaria", "var_id": 101, "unit": "", "network": "sat2", "procedure": "", "n_obs": 17, "last_seen": "2026-08-30T19:00:00.000Z", "live": true, "percentiles": ""}}, {"type": "Feature", "geometry": {"type": "Point", "coordinates": [-62.10138889, -38.89583333]}, "properties": {"series_id": 39718, "station_id": 7396, "station": "Puerto Belgrano", "river": "", "variable": "Altura hidrométrica", "var_id": 2, "unit": "", "network": "estaciones_shn", "procedure": "", "n_obs": 71, "last_seen": "2026-08-30T23:45:00.000Z", "live": true, "percentiles": ""}}, {"type": "Feature", "geometry": {"type": "Point", "coordinates": [-63.8905555555556, -25.7163888888889]}, "properties": {"series_id": 37848, "station_id": 6459, "station": "Canal de Dios - Cruz Bajada", "river": "", "variable": "Altura hidrométrica media diaria", "var_id": 39, "unit": "", "network": "sat2", "procedure": "", "n_obs": 2, "last_seen": "2026-08-29T03:00:00.000Z", "live": true, "percentiles": false}}, {"type": "Feature", "geometry": {"type": "Point", "coordinates": [-68.5947222222222, -53.9983333333333]}, "properties": {"series_id": 34118, "station_id": 6726, "station": "Bella Vista -  Radman", "river": "", "variable": "Altura hidrométrica", "var_id": 2, "unit": "", "network": "sat2", "procedure": "", "n_obs": 17, "last_seen": "2026-08-30T23:00:00.000Z", "live": true, "percentiles": ""}}, {"type": "Feature", "geometry": {"type": "Point", "coordinates": [-68.3769444444444, -53.5480555555556]}, "properties": {"series_id": 33059, "station_id": 6625, "station": "Chico - Chico 2", "river": "", "variable": "Altura hidrométrica", "var_id": 2, "unit": "", "network": "sat2", "procedure": "", "n_obs": 16, "last_seen": "2026-08-30T19:00:00.000Z", "live": true, "percentiles": ""}}, {"type": "Feature", "geometry": {"type": "Point", "coordinates": [-65.3769444444444, -33.7391666666667]}, "properties": {"series_id": 32844, "station_id": 6472, "station": "Quinto -Av Circunvalación", "river": "", "variable": "Altura hidrométrica", "var_id": 2, "unit": "", "network": "sat2", "procedure": "", "n_obs": 46, "last_seen": "2026-08-31T00:00:00.000Z", "live": true, "percentiles": ""}}, {"type": "Feature", "geometry": {"type": "Point", "coordinates": [-60.6255555555556, -32.9513888888889]}, "properties": {"series_id": 38461, "station_id": 5893, "station": "Paraná - Rosario", "river": "Paraná", "variable": "Altura hidrométrica 4-horaria", "var_id": 101, "unit": "", "network": "sat2", "procedure": "", "n_obs": 17, "last_seen": "2026-08-30T19:00:00.000Z", "live": true, "percentiles": false}}, {"type": "Feature", "geometry": {"type": "Point", "coordinates": [-58.0588888888889, -30.1083333333333]}, "properties": {"series_id": 37996, "station_id": 6422, "station": "Mocoretá - RN Nº 127", "river": "", "variable": "Altura hidrométrica media diaria", "var_id": 39, "unit": "", "network": "sat2", "procedure": "", "n_obs": 2, "last_seen": "2026-08-29T03:00:00.000Z", "live": true, "percentiles": false}}, {"type": "Feature", "geometry": {"type": "Point", "coordinates": [-66.475, -43.6983333333333]}, "properties": {"series_id": 26500, "station_id": 2181, "station": "Chubut - Ameghino", "river": "", "variable": "Altura hidrométrica media diaria", "var_id": 39, "unit": "", "network": "sat2", "procedure": "", "n_obs": 2, "last_seen": "2026-08-29T03:00:00.000Z", "live": true, "percentiles": false}}, {"type": "Feature", "geometry": {"type": "Point", "coordinates": [-66.71, -34.0869444444444]}, "properties": {"series_id": 38602, "station_id": 6483, "station": "Desaguadero - Salto de la Tosc", "river": "", "variable": "Altura hidrométrica 4-horaria", "var_id": 101, "unit": "", "network": "sat2", "procedure": "", "n_obs": 17, "last_seen": "2026-08-30T19:00:00.000Z", "live": true, "percentiles": false}}, {"type": "Feature", "geometry": {"type": "Point", "coordinates": [-58.1619444444444, -26.1830555555556]}, "properties": {"series_id": 26442, "station_id": 2116, "station": "Paraguay - Pto. Formosa", "river": "", "variable": "Altura hidrométrica media diaria", "var_id": 39, "unit": "", "network": "sat2", "procedure": "", "n_obs": 2, "last_seen": "2026-08-29T03:00:00.000Z", "live": true, "percentiles": ""}}, {"type": "Feature", "geometry": {"type": "Point", "coordinates": [-68.0613888888889, -33.3072222222222]}, "properties": {"series_id": 37581, "station_id": 7388, "station": "Tunuyán - Las Catitas", "river": "", "variable": "Altura hidrométrica", "var_id": 2, "unit": "", "network": "sat2", "procedure": "", "n_obs": 18, "last_seen": "2026-08-30T23:00:00.000Z", "live": true, "percentiles": ""}}, {"type": "Feature", "geometry": {"type": "Point", "coordinates": [-57.5655555555556, -29.2969444444444]}, "properties": {"series_id": 38150, "station_id": 6735, "station": "Miriñay - San Roquito", "river": "", "variable": "Altura hidrométrica media diaria", "var_id": 39, "unit": "", "network": "sat2", "procedure": "", "n_obs": 2, "last_seen": "2026-08-29T03:00:00.000Z", "live": true, "percentiles": false}}, {"type": "Feature", "geometry": {"type": "Point", "coordinates": [-58.8333333333333, -27.4597222222222]}, "properties": {"series_id": 26441, "station_id": 2115, "station": "Paraná - Corrientes", "river": "", "variable": "Altura hidrométrica media diaria", "var_id": 39, "unit": "", "network": "sat2", "procedure": "", "n_obs": 2, "last_seen": "2026-08-29T03:00:00.000Z", "live": true, "percentiles": false}}, {"type": "Feature", "geometry": {"type": "Point", "coordinates": [-71.5411111111111, -42.4955555555556]}, "properties": {"series_id": 37992, "station_id": 6740, "station": "Carrileufú - Cholila", "river": "", "variable": "Altura hidrométrica media diaria", "var_id": 39, "unit": "", "network": "sat2", "procedure": "", "n_obs": 2, "last_seen": "2026-08-29T03:00:00.000Z", "live": true, "percentiles": ""}}, {"type": "Feature", "geometry": {"type": "Point", "coordinates": [-58.5697222222222, -27.5105555555556]}, "properties": {"series_id": 26599, "station_id": 2854, "station": "Aº Riachuelo - RP Nº5", "river": "", "variable": "Altura hidrométrica media diaria", "var_id": 39, "unit": "", "network": "sat2", "procedure": "", "n_obs": 2, "last_seen": "2026-08-29T03:00:00.000Z", "live": true, "percentiles": false}}, {"type": "Feature", "geometry": {"type": "Point", "coordinates": [-54.91305, -27.730627]}, "properties": {"series_id": 64, "station_id": 64, "station": "Panambí", "river": "URUGUAY", "variable": "Altura hidrométrica", "var_id": 2, "unit": "", "network": "alturas_prefe", "procedure": "", "n_obs": 3, "last_seen": "2026-08-30T03:00:00.000Z", "live": true, "percentiles": ""}}, {"type": "Feature", "geometry": {"type": "Point", "coordinates": [-53.995, -25.5905555555556]}, "properties": {"series_id": 26497, "station_id": 2178, "station": "Iguazú - Puerto Andresito", "river": "", "variable": "Altura hidrométrica media diaria", "var_id": 39, "unit": "", "network": "sat2", "procedure": "", "n_obs": 2, "last_seen": "2026-08-29T03:00:00.000Z", "live": true, "percentiles": ""}}, {"type": "Feature", "geometry": {"type": "Point", "coordinates": [-64.7763888888889, -32.8036111111111]}, "properties": {"series_id": 37993, "station_id": 6389, "station": "Las Tapias - Las Tapias", "river": "", "variable": "Altura hidrométrica media diaria", "var_id": 39, "unit": "", "network": "sat2", "procedure": "", "n_obs": 2, "last_seen": "2026-08-29T03:00:00.000Z", "live": true, "percentiles": false}}, {"type": "Feature", "geometry": {"type": "Point", "coordinates": [-62.7786111111111, -28.6152777777778]}, "properties": {"series_id": 38518, "station_id": 6540, "station": "Salado - Icaño", "river": "", "variable": "Altura hidrométrica 4-horaria", "var_id": 101, "unit": "", "network": "sat2", "procedure": "", "n_obs": 16, "last_seen": "2026-08-30T15:00:00.000Z", "live": true, "percentiles": ""}}, {"type": "Feature", "geometry": {"type": "Point", "coordinates": [-63.2375, -39.3669444444444]}, "properties": {"series_id": 32666, "station_id": 6430, "station": "Colorado - Paso Alsina", "river": "", "variable": "Altura hidrométrica", "var_id": 2, "unit": "", "network": "sat2", "procedure": "", "n_obs": 68, "last_seen": "2026-08-30T21:00:00.000Z", "live": true, "percentiles": ""}}, {"type": "Feature", "geometry": {"type": "Point", "coordinates": [-60.3230555555556, -33.3505555555556]}, "properties": {"series_id": 31956, "station_id": 6401, "station": "Aº Del Medio - Motomel", "river": "", "variable": "Altura hidrométrica", "var_id": 2, "unit": "", "network": "sat2", "procedure": "", "n_obs": 71, "last_seen": "2026-08-31T00:00:00.000Z", "live": true, "percentiles": ""}}, {"type": "Feature", "geometry": {"type": "Point", "coordinates": [-58.4833333333, -34.2]}, "properties": {"series_id": 51, "station_id": 51, "station": "Chaná Miní", "river": "CHANA", "variable": "Altura hidrométrica", "var_id": 2, "unit": "", "network": "alturas_prefe", "procedure": "", "n_obs": 3, "last_seen": "2026-08-30T03:00:00.000Z", "live": true, "percentiles": true}}, {"type": "Feature", "geometry": {"type": "Point", "coordinates": [-64.8080555555556, -23.9094444444444]}, "properties": {"series_id": 38576, "station_id": 6463, "station": "Ledesma -Fraile Pintado-RN 34 ", "river": "", "variable": "Altura hidrométrica 4-horaria", "var_id": 101, "unit": "", "network": "sat2", "procedure": "", "n_obs": 17, "last_seen": "2026-08-30T19:00:00.000Z", "live": true, "percentiles": false}}, {"type": "Feature", "geometry": {"type": "Point", "coordinates": [-58.475863, -34.506666]}, "properties": {"series_id": 26296, "station_id": 54, "station": "Olivos", "river": "RIODELAPLATA", "variable": "Altura hidrométrica media diaria", "var_id": 39, "unit": "", "network": "alturas_prefe", "procedure": "", "n_obs": 2, "last_seen": "2026-08-29T03:00:00.000Z", "live": true, "percentiles": ""}}, {"type": "Feature", "geometry": {"type": "Point", "coordinates": [-57.899273, -30.994853]}, "properties": {"series_id": 26601, "station_id": 5430, "station": "Federación Embalse", "river": "Uruguay", "variable": "Altura hidrométrica media diaria", "var_id": 39, "unit": "", "network": "alturas_prefe", "procedure": "", "n_obs": 2, "last_seen": "2026-08-29T03:00:00.000Z", "live": true, "percentiles": ""}}, {"type": "Feature", "geometry": {"type": "Point", "coordinates": [-63.8916666666667, -25.7166666666667]}, "properties": {"series_id": 32656, "station_id": 6428, "station": "Salado -A.Ab. Azud Cruz Bajada", "river": "", "variable": "Altura hidrométrica", "var_id": 2, "unit": "", "network": "sat2", "procedure": "", "n_obs": 18, "last_seen": "2026-08-30T23:00:00.000Z", "live": true, "percentiles": ""}}, {"type": "Feature", "geometry": {"type": "Point", "coordinates": [-58.8388696, -27.46364349]}, "properties": {"series_id": 26261, "station_id": 19, "station": "Corrientes", "river": "PARANAMED", "variable": "Altura hidrométrica media diaria", "var_id": 39, "unit": "", "network": "alturas_prefe", "procedure": "", "n_obs": 2, "last_seen": "2026-08-29T03:00:00.000Z", "live": true, "percentiles": ""}}, {"type": "Feature", "geometry": {"type": "Point", "coordinates": [-71.3419444444444, -44.9583333333333]}, "properties": {"series_id": 26547, "station_id": 2355, "station": "Senguerr - Nacimiento", "river": "", "variable": "Altura hidrométrica media diaria", "var_id": 39, "unit": "", "network": "sat2", "procedure": "", "n_obs": 2, "last_seen": "2026-08-29T03:00:00.000Z", "live": true, "percentiles": ""}}, {"type": "Feature", "geometry": {"type": "Point", "coordinates": [-57.936945, -31.27547]}, "properties": {"series_id": 26675, "station_id": 78, "station": "Salto Grande Abajo", "river": "URUGUAY", "variable": "Caudal medio diario", "var_id": 40, "unit": "", "network": "alturas_prefe", "procedure": "", "n_obs": 2, "last_seen": "2026-08-29T03:00:00.000Z", "live": true, "percentiles": false}}, {"type": "Feature", "geometry": {"type": "Point", "coordinates": [-71.4283333333333, -43.9194444444444]}, "properties": {"series_id": 37926, "station_id": 6591, "station": "Lago Vinter - Vinter", "river": "", "variable": "Altura hidrométrica media diaria", "var_id": 39, "unit": "", "network": "sat2", "procedure": "", "n_obs": 2, "last_seen": "2026-08-29T03:00:00.000Z", "live": true, "percentiles": ""}}, {"type": "Feature", "geometry": {"type": "Point", "coordinates": [-55.65, -28.1833333333333]}, "properties": {"series_id": 67, "station_id": 67, "station": "Garruchos", "river": "URUGUAY", "variable": "Altura hidrométrica", "var_id": 2, "unit": "", "network": "alturas_prefe", "procedure": "", "n_obs": 3, "last_seen": "2026-08-30T03:00:00.000Z", "live": true, "percentiles": ""}}, {"type": "Feature", "geometry": {"type": "Point", "coordinates": [-55.581369, -28.119193]}, "properties": {"series_id": 66, "station_id": 66, "station": "Puerto Concepción", "river": "URUGUAY", "variable": "Altura hidrométrica", "var_id": 2, "unit": "", "network": "alturas_prefe", "procedure": "", "n_obs": 3, "last_seen": "2026-08-30T03:00:00.000Z", "live": true, "percentiles": ""}}, {"type": "Feature", "geometry": {"type": "Point", "coordinates": [-64.1058333333333, -25.1608333333333]}, "properties": {"series_id": 26556, "station_id": 2671, "station": "Canal Finca Agropecuaria", "river": "", "variable": "Altura hidrométrica media diaria", "var_id": 39, "unit": "", "network": "sat2", "procedure": "", "n_obs": 2, "last_seen": "2026-08-29T03:00:00.000Z", "live": true, "percentiles": ""}}, {"type": "Feature", "geometry": {"type": "Point", "coordinates": [-59.8130555555556, -33.5941666666667]}, "properties": {"series_id": 33257, "station_id": 6395, "station": "Paraná - Vuelta de Obligado", "river": "", "variable": "Altura hidrométrica", "var_id": 2, "unit": "", "network": "sat2", "procedure": "", "n_obs": 42, "last_seen": "2026-08-31T00:00:00.000Z", "live": true, "percentiles": ""}}, {"type": "Feature", "geometry": {"type": "Point", "coordinates": [-62.6755555555556, -39.5247222222222]}, "properties": {"series_id": 37964, "station_id": 6394, "station": "Colorado - Pedro Luro", "river": "", "variable": "Altura hidrométrica media diaria", "var_id": 39, "unit": "", "network": "sat2", "procedure": "", "n_obs": 2, "last_seen": "2026-08-29T03:00:00.000Z", "live": true, "percentiles": false}}, {"type": "Feature", "geometry": {"type": "Point", "coordinates": [-69.2377777777778, -32.9152777777778]}, "properties": {"series_id": 26501, "station_id": 2183, "station": "Mendoza - Guido", "river": "", "variable": "Altura hidrométrica media diaria", "var_id": 39, "unit": "", "network": "sat2", "procedure": "", "n_obs": 2, "last_seen": "2026-08-29T03:00:00.000Z", "live": true, "percentiles": ""}}, {"type": "Feature", "geometry": {"type": "Point", "coordinates": [-59.7638888888889, -32.3947222222222]}, "properties": {"series_id": 38439, "station_id": 2837, "station": "Nogoya - RN Nº12", "river": "", "variable": "Altura hidrométrica 4-horaria", "var_id": 101, "unit": "", "network": "sat2", "procedure": "", "n_obs": 17, "last_seen": "2026-08-30T19:00:00.000Z", "live": true, "percentiles": ""}}, {"type": "Feature", "geometry": {"type": "Point", "coordinates": [-65.2372222222222, -25.2677777777778]}, "properties": {"series_id": 9410, "station_id": 2823, "station": "Juramento - Cabra Corral", "river": "", "variable": "Altura hidrométrica", "var_id": 2, "unit": "", "network": "sat2", "procedure": "", "n_obs": 16, "last_seen": "2026-08-30T19:00:00.000Z", "live": true, "percentiles": ""}}, {"type": "Feature", "geometry": {"type": "Point", "coordinates": [-61.7875, -33.0063888888889]}, "properties": {"series_id": 34342, "station_id": 6357, "station": "Carcarañá - Cruz Alta", "river": "", "variable": "Altura hidrométrica", "var_id": 2, "unit": "", "network": "sat2", "procedure": "", "n_obs": 71, "last_seen": "2026-08-31T00:00:00.000Z", "live": true, "percentiles": ""}}, {"type": "Feature", "geometry": {"type": "Point", "coordinates": [-57.9827777777778, -30.6275]}, "properties": {"series_id": 38585, "station_id": 6664, "station": "Aº Mocoretá - RN Nº 14", "river": "", "variable": "Altura hidrométrica 4-horaria", "var_id": 101, "unit": "", "network": "sat2", "procedure": "", "n_obs": 17, "last_seen": "2026-08-30T19:00:00.000Z", "live": true, "percentiles": ""}}, {"type": "Feature", "geometry": {"type": "Point", "coordinates": [-59.4994444444444, -34.2405555555556]}, "properties": {"series_id": 6906, "station_id": 2215, "station": "Río Areco - San Antonio de Are", "river": "", "variable": "Altura hidrométrica", "var_id": 2, "unit": "", "network": "sat2", "procedure": "", "n_obs": 66, "last_seen": "2026-08-30T23:00:00.000Z", "live": true, "percentiles": ""}}, {"type": "Feature", "geometry": {"type": "Point", "coordinates": [-65.5336111111111, -33.6538888888889]}, "properties": {"series_id": 34033, "station_id": 6441, "station": "Quinto - Dique Villa Mercedes", "river": "", "variable": "Altura hidrométrica", "var_id": 2, "unit": "", "network": "sat2", "procedure": "", "n_obs": 71, "last_seen": "2026-08-31T00:00:00.000Z", "live": true, "percentiles": ""}}, {"type": "Feature", "geometry": {"type": "Point", "coordinates": [-72.0783333333333, -51.6808333333333]}, "properties": {"series_id": 38501, "station_id": 6478, "station": "Turbio - Turbio Viejo", "river": "", "variable": "Altura hidrométrica 4-horaria", "var_id": 101, "unit": "", "network": "sat2", "procedure": "", "n_obs": 17, "last_seen": "2026-08-30T19:00:00.000Z", "live": true, "percentiles": ""}}, {"type": "Feature", "geometry": {"type": "Point", "coordinates": [-58.9427777777778, -27.5272222222222]}, "properties": {"series_id": 38727, "station_id": 7164, "station": "Canal Soberanía - Obra Control", "river": "", "variable": "Altura hidrométrica 4-horaria", "var_id": 101, "unit": "", "network": "sat2", "procedure": "", "n_obs": 17, "last_seen": "2026-08-30T19:00:00.000Z", "live": true, "percentiles": ""}}, {"type": "Feature", "geometry": {"type": "Point", "coordinates": [-56.810674, -29.470031]}, "properties": {"series_id": 71, "station_id": 71, "station": "Yapeyú", "river": "URUGUAY", "variable": "Altura hidrométrica", "var_id": 2, "unit": "", "network": "alturas_prefe", "procedure": "", "n_obs": 3, "last_seen": "2026-08-30T03:00:00.000Z", "live": true, "percentiles": ""}}]}