{"type": "FeatureCollection", "features": [{"type": "Feature", "geometry": {"type": "Point", "coordinates": [-53.9833333333333, -25.5833333333333]}, "properties": {"series_id": "26250", "station": "Andresito", "river": "IGUAZU", "tier": "1", "variable": "level", "var_id": 39, "last_date": "2026-08-29", "last_value": 1.58, "percentile": 84.3, "class": "above", "years_of_record": 43, "days_with_climatology": 365, "join_verdict": "solo", "datum_offset": 0.0, "siblings_collapsed": 3, "sibling_classes": ["above"], "recent_era_rank": 48.8}}, {"type": "Feature", "geometry": {"type": "Point", "coordinates": [-54.5666666666667, -25.5833333333333]}, "properties": {"series_id": "26251", "station": "Puerto Iguazú", "river": "PARANAMED", "tier": "1", "variable": "level", "var_id": 39, "last_date": "2026-08-29", "last_value": 13.0, "percentile": 76.2, "class": "above", "years_of_record": 51, "days_with_climatology": 365, "join_verdict": "solo", "datum_offset": 0.0, "siblings_collapsed": 1, "sibling_classes": ["above", "normal"], "recent_era_rank": 13.8}}, {"type": "Feature", "geometry": {"type": "Point", "coordinates": [-54.621134, -25.916679]}, "properties": {"series_id": "26252", "station": "Libertad", "river": "PARANAMED", "tier": "1", "variable": "level", "var_id": 39, "last_date": "2026-08-29", "last_value": 13.4, "percentile": 77.0, "class": "above", "years_of_record": 54, "days_with_climatology": 365, "join_verdict": "clean", "datum_offset": 0.0, "siblings_collapsed": 4, "sibling_classes": ["above", "normal"], "recent_era_rank": 24.4}}, {"type": "Feature", "geometry": {"type": "Point", "coordinates": [-54.7, -26.3833333333333]}, "properties": {"series_id": "26253", "station": "El Dorado", "river": "PARANAMED", "tier": "1", "variable": "level", "var_id": 39, "last_date": "2026-08-29", "last_value": 9.5, "percentile": 66.6, "class": "normal", "years_of_record": 51, "days_with_climatology": 365, "join_verdict": "solo", "datum_offset": 0.0, "siblings_collapsed": 1, "sibling_classes": ["normal"], "recent_era_rank": 19.3}}, {"type": "Feature", "geometry": {"type": "Point", "coordinates": [-55.0333333333333, -26.8]}, "properties": {"series_id": "26254", "station": "Libertador", "river": "PARANAMED", "tier": "1", "variable": "level", "var_id": 39, "last_date": "2026-08-29", "last_value": 8.0, "percentile": 81.2, "class": "above", "years_of_record": 52, "days_with_climatology": 365, "join_verdict": "solo", "datum_offset": 0.0, "siblings_collapsed": 1, "sibling_classes": ["above", "normal"], "recent_era_rank": 49.0}}, {"type": "Feature", "geometry": {"type": "Point", "coordinates": [-55.8833333333333, -27.3666666666667]}, "properties": {"series_id": "26256", "station": "Posadas", "river": "PARANAMED", "tier": "1", "variable": "level", "var_id": 39, "last_date": "2026-08-29", "last_value": 9.88, "percentile": 77.6, "class": "above", "years_of_record": 57, "days_with_climatology": 365, "join_verdict": "solo", "datum_offset": 0.0, "siblings_collapsed": 1, "sibling_classes": ["above"], "recent_era_rank": 84.6}}, {"type": "Feature", "geometry": {"type": "Point", "coordinates": [-56.7, -27.5833333333333]}, "properties": {"series_id": "26257", "station": "Ituzaingó", "river": "PARANAMED", "tier": "1", "variable": "level", "var_id": 39, "last_date": "2026-08-29", "last_value": 1.6, "percentile": 68.3, "class": "normal", "years_of_record": 57, "days_with_climatology": 365, "join_verdict": "solo", "datum_offset": 0.0, "siblings_collapsed": 1, "sibling_classes": ["normal"], "recent_era_rank": 19.6}}, {"type": "Feature", "geometry": {"type": "Point", "coordinates": [-57.33326783, -27.42336098]}, "properties": {"series_id": "26258", "station": "Itá Ibaté", "river": "PARANAMED", "tier": "1", "variable": "level", "var_id": 39, "last_date": "2026-08-29", "last_value": 1.9, "percentile": 72.9, "class": "normal", "years_of_record": 114, "days_with_climatology": 365, "join_verdict": "solo", "datum_offset": 0.0, "siblings_collapsed": 1, "sibling_classes": ["normal"], "recent_era_rank": 31.1}}, {"type": "Feature", "geometry": {"type": "Point", "coordinates": [-58.24407387, -27.26677773]}, "properties": {"series_id": "26259", "station": "Itatí", "river": "PARANAMED", "tier": "1", "variable": "level", "var_id": 39, "last_date": "2026-08-29", "last_value": 2.86, "percentile": 67.2, "class": "normal", "years_of_record": 114, "days_with_climatology": 365, "join_verdict": "unusable", "datum_offset": 0.0, "siblings_collapsed": 1, "sibling_classes": ["normal"], "recent_era_rank": 24.0}}, {"type": "Feature", "geometry": {"type": "Point", "coordinates": [-58.5833333333333, -27.3333333333333]}, "properties": {"series_id": "26260", "station": "Paso de la Patria", "river": "PARANAMED", "tier": "1", "variable": "level", "var_id": 39, "last_date": "2026-08-29", "last_value": 2.54, "percentile": 29.9, "class": "normal", "years_of_record": 57, "days_with_climatology": 365, "join_verdict": "solo", "datum_offset": 0.0, "siblings_collapsed": 1, "sibling_classes": ["normal"], "recent_era_rank": 8.5}}, {"type": "Feature", "geometry": {"type": "Point", "coordinates": [-58.8388696, -27.46364349]}, "properties": {"series_id": "26261", "station": "Corrientes", "river": "PARANAMED", "tier": "1", "variable": "level", "var_id": 39, "last_date": "2026-08-29", "last_value": 2.56, "percentile": 55.4, "class": "normal", "years_of_record": 126, "days_with_climatology": 365, "join_verdict": "clean", "datum_offset": 0.0, "siblings_collapsed": 6, "sibling_classes": ["much_above", "normal"], "recent_era_rank": 17.7}}, {"type": "Feature", "geometry": {"type": "Point", "coordinates": [-58.9333333333333, -27.4833333333333]}, "properties": {"series_id": "26262", "station": "Barranqueras", "river": "BARRANQUERAS", "tier": "1", "variable": "level", "var_id": 39, "last_date": "2026-08-29", "last_value": 2.54, "percentile": 29.4, "class": "normal", "years_of_record": 57, "days_with_climatology": 365, "join_verdict": "solo", "datum_offset": 0.0, "siblings_collapsed": 1, "sibling_classes": ["normal"], "recent_era_rank": 9.4}}, {"type": "Feature", "geometry": {"type": "Point", "coordinates": [-58.81852419, -27.95412346]}, "properties": {"series_id": "26263", "station": "Empedrado", "river": "PARANAINF", "tier": "1", "variable": "level", "var_id": 39, "last_date": "2026-08-29", "last_value": 2.58, "percentile": 73.7, "class": "normal", "years_of_record": 85, "days_with_climatology": 365, "join_verdict": "unusable", "datum_offset": 0.0, "siblings_collapsed": 1, "sibling_classes": ["normal"], "recent_era_rank": 24.2}}, {"type": "Feature", "geometry": {"type": "Point", "coordinates": [-59.05931723, -28.51840072]}, "properties": {"series_id": "26264", "station": "Bella Vista", "river": "PARANAINF", "tier": "1", "variable": "level", "var_id": 39, "last_date": "2026-08-29", "last_value": 2.78, "percentile": 41.2, "class": "normal", "years_of_record": 56, "days_with_climatology": 365, "join_verdict": "solo", "datum_offset": 0.0, "siblings_collapsed": 1, "sibling_classes": ["normal"], "recent_era_rank": 10.1}}, {"type": "Feature", "geometry": {"type": "Point", "coordinates": [-59.58115833, -29.23756092]}, "properties": {"series_id": "26266", "station": "Reconquista", "river": "SANJAVIER", "tier": "1", "variable": "level", "var_id": 39, "last_date": "2026-08-29", "last_value": 2.66, "percentile": 29.0, "class": "normal", "years_of_record": 57, "days_with_climatology": 365, "join_verdict": "solo", "datum_offset": 0.0, "siblings_collapsed": 1, "sibling_classes": ["normal"], "recent_era_rank": 8.2}}, {"type": "Feature", "geometry": {"type": "Point", "coordinates": [-59.53663483, -30.01924089]}, "properties": {"series_id": "26267", "station": "Esquina", "river": "PARANAINF", "tier": "1", "variable": "level", "var_id": 39, "last_date": "2026-08-29", "last_value": 2.71, "percentile": 37.6, "class": "normal", "years_of_record": 57, "days_with_climatology": 365, "join_verdict": "solo", "datum_offset": 0.0, "siblings_collapsed": 1, "sibling_classes": ["normal"], "recent_era_rank": 10.3}}, {"type": "Feature", "geometry": {"type": "Point", "coordinates": [-59.6381167, -30.73419972]}, "properties": {"series_id": "26268", "station": "La Paz", "river": "PARANAINF", "tier": "1", "variable": "level", "var_id": 39, "last_date": "2026-08-29", "last_value": 3.44, "percentile": 70.8, "class": "normal", "years_of_record": 121, "days_with_climatology": 365, "join_verdict": "solo", "datum_offset": 0.0, "siblings_collapsed": 1, "sibling_classes": ["normal"], "recent_era_rank": 28.6}}, {"type": "Feature", "geometry": {"type": "Point", "coordinates": [-59.99193936, -31.22650904]}, "properties": {"series_id": "26270", "station": "Hernandarias", "river": "PARANAINF", "tier": "1", "variable": "level", "var_id": 39, "last_date": "2026-08-29", "last_value": 3.04, "percentile": 49.9, "class": "normal", "years_of_record": 52, "days_with_climatology": 365, "join_verdict": "solo", "datum_offset": 0.0, "siblings_collapsed": 1, "sibling_classes": ["normal"], "recent_era_rank": 12.4}}, {"type": "Feature", "geometry": {"type": "Point", "coordinates": [-60.6432219715378, -32.0715615377843]}, "properties": {"series_id": "26273", "station": "Diamante", "river": "PARANAINF", "tier": "1", "variable": "level", "var_id": 39, "last_date": "2026-08-29", "last_value": 3.15, "percentile": 70.8, "class": "normal", "years_of_record": 125, "days_with_climatology": 365, "join_verdict": "solo", "datum_offset": 0.0, "siblings_collapsed": 1, "sibling_classes": ["normal"], "recent_era_rank": 22.9}}, {"type": "Feature", "geometry": {"type": "Point", "coordinates": [-60.2195849446607, -32.6558456373673]}, "properties": {"series_id": "26274", "station": "Victoria", "river": "VICTORIA", "tier": "1", "variable": "level", "var_id": 39, "last_date": "2026-08-29", "last_value": 3.58, "percentile": 58.7, "class": "normal", "years_of_record": 57, "days_with_climatology": 365, "join_verdict": "solo", "datum_offset": 0.0, "siblings_collapsed": 1, "sibling_classes": ["normal"], "recent_era_rank": 14.9}}, {"type": "Feature", "geometry": {"type": "Point", "coordinates": [-60.7256705696322, -32.7336256031375]}, "properties": {"series_id": "26275", "station": "San Lorenzo (San Martín)", "river": "PARANAINF", "tier": "1", "variable": "level", "var_id": 39, "last_date": "2026-08-29", "last_value": 2.93, "percentile": 44.1, "class": "normal", "years_of_record": 57, "days_with_climatology": 365, "join_verdict": "solo", "datum_offset": 0.0, "siblings_collapsed": 1, "sibling_classes": ["normal"], "recent_era_rank": 10.7}}, {"type": "Feature", "geometry": {"type": "Point", "coordinates": [-60.6308206029857, -32.9432699442268]}, "properties": {"series_id": "26276", "station": "Rosario", "river": "PARANAINF", "tier": "1", "variable": "level", "var_id": 39, "last_date": "2026-08-29", "last_value": 2.77, "percentile": 67.7, "class": "normal", "years_of_record": 143, "days_with_climatology": 365, "join_verdict": "solo", "datum_offset": 0.0, "siblings_collapsed": 2, "sibling_classes": ["normal"], "recent_era_rank": 19.2}}, {"type": "Feature", "geometry": {"type": "Point", "coordinates": [-60.3091044341421, -33.2354221667103]}, "properties": {"series_id": "26277", "station": "Villa Constitución", "river": "PARANAINF", "tier": "1", "variable": "level", "var_id": 39, "last_date": "2026-08-29", "last_value": 2.23, "percentile": 36.4, "class": "normal", "years_of_record": 46, "days_with_climatology": 365, "join_verdict": "solo", "datum_offset": 0.0, "siblings_collapsed": 1, "sibling_classes": ["normal"], "recent_era_rank": 8.2}}, {"type": "Feature", "geometry": {"type": "Point", "coordinates": [-59.6497183332918, -33.6745267329027]}, "properties": {"series_id": "26280", "station": "San Pedro", "river": "PARANAINF", "tier": "1", "variable": "level", "var_id": 39, "last_date": "2026-08-29", "last_value": 1.62, "percentile": 52.3, "class": "normal", "years_of_record": 57, "days_with_climatology": 365, "join_verdict": "solo", "datum_offset": 0.0, "siblings_collapsed": 1, "sibling_classes": ["normal"], "recent_era_rank": 11.2}}, {"type": "Feature", "geometry": {"type": "Point", "coordinates": [-59.4955962110789, -33.8006916108445]}, "properties": {"series_id": "26281", "station": "Baradero", "river": "BARADERO", "tier": "1", "variable": "level", "var_id": 39, "last_date": "2026-08-29", "last_value": 1.65, "percentile": 60.4, "class": "normal", "years_of_record": 43, "days_with_climatology": 365, "join_verdict": "solo", "datum_offset": 0.0, "siblings_collapsed": 1, "sibling_classes": ["normal"], "recent_era_rank": 13.6}}, {"type": "Feature", "geometry": {"type": "Point", "coordinates": [-59.0108657589595, -34.0987818311696]}, "properties": {"series_id": "26282", "station": "Zárate", "river": "PARANADELASPALMAS", "tier": "1", "variable": "level", "var_id": 39, "last_date": "2026-08-29", "last_value": 0.91, "percentile": 64.4, "class": "normal", "years_of_record": 43, "days_with_climatology": 365, "join_verdict": "solo", "datum_offset": 0.0, "siblings_collapsed": 1, "sibling_classes": ["normal"], "recent_era_rank": 40.0}}, {"type": "Feature", "geometry": {"type": "Point", "coordinates": [-58.9581750062675, -34.1555854281116]}, "properties": {"series_id": "26283", "station": "Campana", "river": "PARANADELASPALMAS", "tier": "1", "variable": "level", "var_id": 39, "last_date": "2026-08-29", "last_value": 0.6, "percentile": 45.6, "class": "normal", "years_of_record": 48, "days_with_climatology": 365, "join_verdict": "solo", "datum_offset": 0.0, "siblings_collapsed": 1, "sibling_classes": ["normal"], "recent_era_rank": 16.6}}, {"type": "Feature", "geometry": {"type": "Point", "coordinates": [-59.1800594404244, -33.7619777376355]}, "properties": {"series_id": "26287", "station": "Ibicuy", "river": "PARANAIBICUY", "tier": "1", "variable": "level", "var_id": 39, "last_date": "2026-08-29", "last_value": 0.8, "percentile": 61.6, "class": "normal", "years_of_record": 44, "days_with_climatology": 365, "join_verdict": "solo", "datum_offset": 0.0, "siblings_collapsed": 1, "sibling_classes": ["normal"], "recent_era_rank": 17.0}}, {"type": "Feature", "geometry": {"type": "Point", "coordinates": [-58.2530455191105, -34.1902896924007]}, "properties": {"series_id": "26289", "station": "Martín García", "river": "RIODELAPLATA", "tier": "1", "variable": "level", "var_id": 39, "last_date": "2026-08-29", "last_value": 1.11, "percentile": 80.0, "class": "above", "years_of_record": 20, "days_with_climatology": 365, "join_verdict": "solo", "datum_offset": 0.0, "siblings_collapsed": 1, "sibling_classes": ["above", "normal"], "recent_era_rank": null}}, {"type": "Feature", "geometry": {"type": "Point", "coordinates": [-58.4, -34.0166666667]}, "properties": {"series_id": "26290", "station": "Guazucito", "river": "PARANAGUAZU", "tier": "1", "variable": "level", "var_id": 39, "last_date": "2026-08-29", "last_value": 1.4, "percentile": 83.2, "class": "above", "years_of_record": 21, "days_with_climatology": 365, "join_verdict": "solo", "datum_offset": 0.0, "siblings_collapsed": 1, "sibling_classes": ["above"], "recent_era_rank": 61.2}}, {"type": "Feature", "geometry": {"type": "Point", "coordinates": [-58.5779747237367, -34.4159316389634]}, "properties": {"series_id": "26291", "station": "Tigre", "river": "LUJAN", "tier": "1", "variable": "level", "var_id": 39, "last_date": "2026-08-29", "last_value": 1.1, "percentile": 60.7, "class": "normal", "years_of_record": 21, "days_with_climatology": 365, "join_verdict": "solo", "datum_offset": 0.0, "siblings_collapsed": 1, "sibling_classes": ["normal"], "recent_era_rank": 50.3}}, {"type": "Feature", "geometry": {"type": "Point", "coordinates": [-58.4833333333, -34.2]}, "properties": {"series_id": "26293", "station": "Chaná Miní", "river": "CHANA", "tier": "1", "variable": "level", "var_id": 39, "last_date": "2026-08-29", "last_value": 1.8, "percentile": 53.8, "class": "normal", "years_of_record": 21, "days_with_climatology": 365, "join_verdict": "solo", "datum_offset": 0.0, "siblings_collapsed": 1, "sibling_classes": ["normal"], "recent_era_rank": 34.4}}, {"type": "Feature", "geometry": {"type": "Point", "coordinates": [-58.55, -34.4333333333]}, "properties": {"series_id": "26294", "station": "San Fernando", "river": "LUJAN", "tier": "1", "variable": "level", "var_id": 39, "last_date": "2026-08-29", "last_value": 1.01, "percentile": 55.8, "class": "normal", "years_of_record": 21, "days_with_climatology": 365, "join_verdict": "solo", "datum_offset": 0.0, "siblings_collapsed": 1, "sibling_classes": ["normal"], "recent_era_rank": 46.5}}, {"type": "Feature", "geometry": {"type": "Point", "coordinates": [-58.475863, -34.506666]}, "properties": {"series_id": "26296", "station": "Olivos", "river": "RIODELAPLATA", "tier": "1", "variable": "level", "var_id": 39, "last_date": "2026-08-29", "last_value": 0.8, "percentile": 42.9, "class": "normal", "years_of_record": 27, "days_with_climatology": 365, "join_verdict": "solo", "datum_offset": 0.0, "siblings_collapsed": 1, "sibling_classes": ["normal"], "recent_era_rank": 55.9}}, {"type": "Feature", "geometry": {"type": "Point", "coordinates": [-57.65, -25.3666666666667]}, "properties": {"series_id": "26652", "station": "Puerto Pilcomayo", "river": "PARAGUAY", "tier": "1", "variable": "flow", "var_id": 40, "last_date": "2026-08-29", "last_value": 1880.39, "percentile": 12.9, "class": "below", "years_of_record": 57, "days_with_climatology": 365, "join_verdict": "unusable", "datum_offset": 0.0, "siblings_collapsed": 3, "sibling_classes": ["below"], "recent_era_rank": 17.6}}, {"type": "Feature", "geometry": {"type": "Point", "coordinates": [-58.506205, -26.92629]}, "properties": {"series_id": "26300", "station": "Bermejo", "river": "PARAGUAY", "tier": "1", "variable": "level", "var_id": 39, "last_date": "2026-08-29", "last_value": 2.4, "percentile": 21.8, "class": "below", "years_of_record": 50, "days_with_climatology": 365, "join_verdict": "unusable", "datum_offset": 0.0, "siblings_collapsed": 1, "sibling_classes": ["below", "normal"], "recent_era_rank": 11.7}}, {"type": "Feature", "geometry": {"type": "Point", "coordinates": [-53.933149, -27.153744]}, "properties": {"series_id": "26302", "station": "Pepirí Miní", "river": "URUGUAY", "tier": "1", "variable": "level", "var_id": 39, "last_date": "2026-08-29", "last_value": 3.7, "percentile": 73.4, "class": "normal", "years_of_record": 30, "days_with_climatology": 365, "join_verdict": "unusable", "datum_offset": 0.0, "siblings_collapsed": 1, "sibling_classes": ["normal"], "recent_era_rank": 31.9}}, {"type": "Feature", "geometry": {"type": "Point", "coordinates": [-54.2, -27.3]}, "properties": {"series_id": "26658", "station": "El Soberbio", "river": "URUGUAY", "tier": "1", "variable": "flow", "var_id": 40, "last_date": "2026-08-29", "last_value": 3031.0, "percentile": 81.0, "class": "above", "years_of_record": 47, "days_with_climatology": 365, "join_verdict": "unusable", "datum_offset": 0.0, "siblings_collapsed": 6, "sibling_classes": ["above", "normal"], "recent_era_rank": 45.0}}, {"type": "Feature", "geometry": {"type": "Point", "coordinates": [-54.91305, -27.730627]}, "properties": {"series_id": "26306", "station": "Panambí", "river": "URUGUAY", "tier": "1", "variable": "level", "var_id": 39, "last_date": "2026-08-29", "last_value": 4.3, "percentile": 96.5, "class": "much_above", "years_of_record": 30, "days_with_climatology": 365, "join_verdict": "solo", "datum_offset": 0.0, "siblings_collapsed": 1, "sibling_classes": ["above", "much_above"], "recent_era_rank": 73.0}}, {"type": "Feature", "geometry": {"type": "Point", "coordinates": [-55.1333333333333, -27.8833333333333]}, "properties": {"series_id": "26662", "station": "San Javier", "river": "URUGUAY", "tier": "1", "variable": "flow", "var_id": 40, "last_date": "2026-08-29", "last_value": 3550.0, "percentile": 81.8, "class": "above", "years_of_record": 57, "days_with_climatology": 365, "join_verdict": "solo", "datum_offset": 0.0, "siblings_collapsed": 3, "sibling_classes": ["above", "normal"], "recent_era_rank": 54.4}}, {"type": "Feature", "geometry": {"type": "Point", "coordinates": [-55.581369, -28.119193]}, "properties": {"series_id": "26308", "station": "Puerto Concepción", "river": "URUGUAY", "tier": "1", "variable": "level", "var_id": 39, "last_date": "2026-08-29", "last_value": 2.55, "percentile": 59.5, "class": "normal", "years_of_record": 21, "days_with_climatology": 365, "join_verdict": "unusable", "datum_offset": 0.0, "siblings_collapsed": 1, "sibling_classes": ["normal"], "recent_era_rank": 45.0}}, {"type": "Feature", "geometry": {"type": "Point", "coordinates": [-55.65, -28.1833333333333]}, "properties": {"series_id": "26309", "station": "Garruchos", "river": "URUGUAY", "tier": "1", "variable": "level", "var_id": 39, "last_date": "2026-08-29", "last_value": 3.98, "percentile": 79.7, "class": "above", "years_of_record": 57, "days_with_climatology": 365, "join_verdict": "solo", "datum_offset": 0.0, "siblings_collapsed": 2, "sibling_classes": ["above", "normal"], "recent_era_rank": 62.1}}, {"type": "Feature", "geometry": {"type": "Point", "coordinates": [-56.0333333333333, -28.55]}, "properties": {"series_id": "26310", "station": "Santo Tomé", "river": "URUGUAY", "tier": "1", "variable": "level", "var_id": 39, "last_date": "2026-08-29", "last_value": 4.19, "percentile": 59.7, "class": "normal", "years_of_record": 57, "days_with_climatology": 365, "join_verdict": "clean", "datum_offset": 0.0, "siblings_collapsed": 6, "sibling_classes": ["below", "normal"], "recent_era_rank": 45.1}}, {"type": "Feature", "geometry": {"type": "Point", "coordinates": [-56.633977, -29.18062]}, "properties": {"series_id": "26312", "station": "La Cruz", "river": "URUGUAY", "tier": "1", "variable": "level", "var_id": 39, "last_date": "2026-08-29", "last_value": 4.62, "percentile": 76.3, "class": "above", "years_of_record": 21, "days_with_climatology": 365, "join_verdict": "solo", "datum_offset": 0.0, "siblings_collapsed": 1, "sibling_classes": ["above"], "recent_era_rank": 51.6}}, {"type": "Feature", "geometry": {"type": "Point", "coordinates": [-56.810674, -29.470031]}, "properties": {"series_id": "26313", "station": "Yapeyú", "river": "URUGUAY", "tier": "1", "variable": "level", "var_id": 39, "last_date": "2026-08-29", "last_value": 4.61, "percentile": 82.3, "class": "above", "years_of_record": 21, "days_with_climatology": 365, "join_verdict": "solo", "datum_offset": 0.0, "siblings_collapsed": 1, "sibling_classes": ["above"], "recent_era_rank": 54.5}}, {"type": "Feature", "geometry": {"type": "Point", "coordinates": [-57.0833333333333, -29.7166666666667]}, "properties": {"series_id": "26314", "station": "Paso de los Libres", "river": "URUGUAY", "tier": "1", "variable": "level", "var_id": 39, "last_date": "2026-08-29", "last_value": 4.26, "percentile": 68.9, "class": "normal", "years_of_record": 57, "days_with_climatology": 365, "join_verdict": "clean", "datum_offset": 0.0, "siblings_collapsed": 6, "sibling_classes": ["above", "normal"], "recent_era_rank": 50.6}}, {"type": "Feature", "geometry": {"type": "Point", "coordinates": [-57.332887, -29.872652]}, "properties": {"series_id": "26315", "station": "Bompland", "river": "URUGUAY", "tier": "1", "variable": "level", "var_id": 39, "last_date": "2026-08-29", "last_value": 4.03, "percentile": 79.7, "class": "above", "years_of_record": 21, "days_with_climatology": 365, "join_verdict": "solo", "datum_offset": 0.0, "siblings_collapsed": 1, "sibling_classes": ["above"], "recent_era_rank": 48.8}}, {"type": "Feature", "geometry": {"type": "Point", "coordinates": [-57.6333333333333, -30.25]}, "properties": {"series_id": "26316", "station": "Monte Caseros", "river": "URUGUAY", "tier": "1", "variable": "level", "var_id": 39, "last_date": "2026-08-29", "last_value": 3.68, "percentile": 76.6, "class": "above", "years_of_record": 45, "days_with_climatology": 365, "join_verdict": "solo", "datum_offset": 0.0, "siblings_collapsed": 1, "sibling_classes": ["above", "normal"], "recent_era_rank": 51.2}}, {"type": "Feature", "geometry": {"type": "Point", "coordinates": [-57.81776, -30.715682]}, "properties": {"series_id": "26317", "station": "Mocoretá", "river": "URUGUAY", "tier": "1", "variable": "level", "var_id": 39, "last_date": "2026-08-29", "last_value": 9.08, "percentile": 93.3, "class": "above", "years_of_record": 21, "days_with_climatology": 365, "join_verdict": "solo", "datum_offset": 0.0, "siblings_collapsed": 1, "sibling_classes": ["above"], "recent_era_rank": 56.2}}, {"type": "Feature", "geometry": {"type": "Point", "coordinates": [-57.936945, -31.27547]}, "properties": {"series_id": "26674", "station": "Salto Grande Arriba", "river": "URUGUAY", "tier": "1", "variable": "flow", "var_id": 40, "last_date": "2026-08-29", "last_value": 6715.0, "percentile": 84.7, "class": "above", "years_of_record": 32, "days_with_climatology": 365, "join_verdict": "solo", "datum_offset": 0.0, "siblings_collapsed": 7, "sibling_classes": ["above", "much_above"], "recent_era_rank": 50.3}}, {"type": "Feature", "geometry": {"type": "Point", "coordinates": [-58.0166666666667, -31.4]}, "properties": {"series_id": "26321", "station": "Concordia", "river": "URUGUAY", "tier": "1", "variable": "level", "var_id": 39, "last_date": "2026-08-29", "last_value": 7.0, "percentile": 86.3, "class": "above", "years_of_record": 57, "days_with_climatology": 365, "join_verdict": "solo", "datum_offset": 0.0, "siblings_collapsed": 1, "sibling_classes": ["above"], "recent_era_rank": 56.1}}, {"type": "Feature", "geometry": {"type": "Point", "coordinates": [-58.1166666666667, -32.2333333333333]}, "properties": {"series_id": "26322", "station": "Colón", "river": "URUGUAY", "tier": "1", "variable": "level", "var_id": 39, "last_date": "2026-08-29", "last_value": 4.46, "percentile": 89.8, "class": "above", "years_of_record": 56, "days_with_climatology": 365, "join_verdict": "solo", "datum_offset": 0.0, "siblings_collapsed": 1, "sibling_classes": ["above"], "recent_era_rank": 52.1}}, {"type": "Feature", "geometry": {"type": "Point", "coordinates": [-58.2333333333333, -32.4833333333333]}, "properties": {"series_id": "26323", "station": "Concepción del Uruguay", "river": "URUGUAY", "tier": "1", "variable": "level", "var_id": 39, "last_date": "2026-08-29", "last_value": 3.66, "percentile": 90.8, "class": "above", "years_of_record": 56, "days_with_climatology": 365, "join_verdict": "solo", "datum_offset": 0.0, "siblings_collapsed": 1, "sibling_classes": ["above"], "recent_era_rank": 54.3}}, {"type": "Feature", "geometry": {"type": "Point", "coordinates": [-58.1834, -32.70101]}, "properties": {"series_id": "26324", "station": "Campichuelo", "river": "URUGUAY", "tier": "1", "variable": "level", "var_id": 39, "last_date": "2026-08-29", "last_value": 3.05, "percentile": 93.8, "class": "above", "years_of_record": 31, "days_with_climatology": 365, "join_verdict": "solo", "datum_offset": 0.0, "siblings_collapsed": 1, "sibling_classes": ["above"], "recent_era_rank": 44.1}}, {"type": "Feature", "geometry": {"type": "Point", "coordinates": [-58.4166666666667, -33.0666666666667]}, "properties": {"series_id": "26326", "station": "Boca Gualeguaychú", "river": "URUGUAY", "tier": "1", "variable": "level", "var_id": 39, "last_date": "2026-08-29", "last_value": 2.28, "percentile": 92.1, "class": "above", "years_of_record": 50, "days_with_climatology": 365, "join_verdict": "solo", "datum_offset": 0.0, "siblings_collapsed": 1, "sibling_classes": ["above"], "recent_era_rank": 48.7}}, {"type": "Feature", "geometry": {"type": "Point", "coordinates": [-58.399288, -34.56108]}, "properties": {"series_id": "26327", "station": "Buenos Aires", "river": "RIODELAPLATA", "tier": "1", "variable": "level", "var_id": 39, "last_date": "2026-08-29", "last_value": 0.98, "percentile": 61.9, "class": "normal", "years_of_record": 21, "days_with_climatology": 365, "join_verdict": "solo", "datum_offset": 0.0, "siblings_collapsed": 1, "sibling_classes": ["normal"], "recent_era_rank": 53.4}}, {"type": "Feature", "geometry": {"type": "Point", "coordinates": [-57.873546, -34.824196]}, "properties": {"series_id": "26328", "station": "La Plata", "river": "RIODELAPLATA", "tier": "1", "variable": "level", "var_id": 39, "last_date": "2026-08-29", "last_value": 0.6, "percentile": 21.0, "class": "below", "years_of_record": 21, "days_with_climatology": 365, "join_verdict": "solo", "datum_offset": 0.0, "siblings_collapsed": 1, "sibling_classes": ["below"], "recent_era_rank": 42.1}}, {"type": "Feature", "geometry": {"type": "Point", "coordinates": [-56.727244, -27.482557]}, "properties": {"series_id": "26685", "station": "Yacyretá efluente", "river": "PARANAMED", "tier": "1", "variable": "flow", "var_id": 40, "last_date": "2026-08-29", "last_value": 10600.0, "percentile": 34.1, "class": "normal", "years_of_record": 33, "days_with_climatology": 365, "join_verdict": "solo", "datum_offset": 0.0, "siblings_collapsed": 3, "sibling_classes": ["normal"], "recent_era_rank": 19.4}}, {"type": "Feature", "geometry": {"type": "Point", "coordinates": [-54.593363, -25.592701]}, "properties": {"series_id": "26690", "station": "Confluencia", "river": "PARANAMED", "tier": "1", "variable": "flow", "var_id": 40, "last_date": "2026-08-29", "last_value": 10506.1, "percentile": 49.8, "class": "normal", "years_of_record": 21, "days_with_climatology": 365, "join_verdict": "solo", "datum_offset": 0.0, "siblings_collapsed": 1, "sibling_classes": ["normal"], "recent_era_rank": 20.3}}, {"type": "Feature", "geometry": {"type": "Point", "coordinates": [-58.5041666666667, -33.0144444444444]}, "properties": {"series_id": "26341", "station": "Gualeguaychú", "river": "URUGUAY", "tier": "1", "variable": "level", "var_id": 39, "last_date": "2026-08-29", "last_value": 2.44, "percentile": 92.8, "class": "above", "years_of_record": 21, "days_with_climatology": 365, "join_verdict": "solo", "datum_offset": 0.0, "siblings_collapsed": 1, "sibling_classes": ["above"], "recent_era_rank": 52.8}}, {"type": "Feature", "geometry": {"type": "Point", "coordinates": [-57.13330078125, -35.0999984741211]}, "properties": {"series_id": "26394", "station": "Oyarvide", "river": "", "tier": "1", "variable": "level", "var_id": 39, "last_date": "2026-08-29", "last_value": 0.94, "percentile": 74.1, "class": "normal", "years_of_record": 11, "days_with_climatology": 365, "join_verdict": "solo", "datum_offset": 0.0, "siblings_collapsed": 1, "sibling_classes": ["below", "normal"], "recent_era_rank": 78.8}}, {"type": "Feature", "geometry": {"type": "Point", "coordinates": [-57.8800010681152, -34.8339004516602]}, "properties": {"series_id": "26396", "station": "La Plata", "river": "", "tier": "1", "variable": "level", "var_id": 39, "last_date": "2026-08-29", "last_value": 1.01, "percentile": 55.6, "class": "normal", "years_of_record": 11, "days_with_climatology": 365, "join_verdict": "solo", "datum_offset": 0.0, "siblings_collapsed": 1, "sibling_classes": ["normal"], "recent_era_rank": 51.7}}, {"type": "Feature", "geometry": {"type": "Point", "coordinates": [-60.9902777777778, -32.0177777777778]}, "properties": {"series_id": "26439", "station": "Aº Colastiné - Autopista - A01", "river": "", "tier": "2", "variable": "level", "var_id": 39, "last_date": "2026-08-29", "last_value": 0.13, "percentile": 34.0, "class": "normal", "years_of_record": 15, "days_with_climatology": 365, "join_verdict": "clean", "datum_offset": 0.0, "siblings_collapsed": 2, "sibling_classes": ["much_below", "normal"], "recent_era_rank": 27.6}}, {"type": "Feature", "geometry": {"type": "Point", "coordinates": [-58.1619444444444, -26.1830555555556]}, "properties": {"series_id": "26442", "station": "Paraguay - Pto. Formosa", "river": "", "tier": "2", "variable": "level", "var_id": 39, "last_date": "2026-08-29", "last_value": 2.55, "percentile": 22.7, "class": "below", "years_of_record": 18, "days_with_climatology": 365, "join_verdict": "clean", "datum_offset": 0.003, "siblings_collapsed": 2, "sibling_classes": ["below"], "recent_era_rank": 30.0}}, {"type": "Feature", "geometry": {"type": "Point", "coordinates": [-71.5025, -41.8986111111111]}, "properties": {"series_id": "26470", "station": "Quemquemtreu - Escuela", "river": "", "tier": "2", "variable": "level", "var_id": 39, "last_date": "2026-08-29", "last_value": 0.31, "percentile": 6.3, "class": "below", "years_of_record": 26, "days_with_climatology": 365, "join_verdict": "corrected", "datum_offset": 0.22, "siblings_collapsed": 2, "sibling_classes": ["above", "below", "normal"], "recent_era_rank": 21.0}}, {"type": "Feature", "geometry": {"type": "Point", "coordinates": [-57.675, -29.8458333333333]}, "properties": {"series_id": "26476", "station": "Miriñay - Paso Ledesma", "river": "", "tier": "2", "variable": "level", "var_id": 39, "last_date": "2026-08-29", "last_value": 4.34, "percentile": 100.0, "class": "much_above", "years_of_record": 24, "days_with_climatology": 365, "join_verdict": "clean", "datum_offset": 0.0, "siblings_collapsed": 2, "sibling_classes": ["much_above"], "recent_era_rank": 57.5}}, {"type": "Feature", "geometry": {"type": "Point", "coordinates": [-70.2522222222222, -45.6836111111111]}, "properties": {"series_id": "26487", "station": "Mayo - Paso Mayo", "river": "", "tier": "2", "variable": "level", "var_id": 39, "last_date": "2026-08-28", "last_value": 0.0, "percentile": 48.9, "class": "normal", "years_of_record": 10, "days_with_climatology": 70, "join_verdict": "corrected", "datum_offset": -0.4, "siblings_collapsed": 1, "sibling_classes": ["normal"], "recent_era_rank": 50.0}}, {"type": "Feature", "geometry": {"type": "Point", "coordinates": [-72.0641666666667, -49.7972222222222]}, "properties": {"series_id": "26490", "station": "La Leona", "river": "", "tier": "2", "variable": "level", "var_id": 39, "last_date": "2026-08-29", "last_value": 0.81, "percentile": 72.8, "class": "normal", "years_of_record": 26, "days_with_climatology": 365, "join_verdict": "clean", "datum_offset": 0.0, "siblings_collapsed": 2, "sibling_classes": ["above", "normal"], "recent_era_rank": 29.5}}, {"type": "Feature", "geometry": {"type": "Point", "coordinates": [-63.9761111111111, -25.4136111111111]}, "properties": {"series_id": "26494", "station": "Canal Macapillo", "river": "", "tier": "2", "variable": "level", "var_id": 39, "last_date": "2026-08-29", "last_value": 0.77, "percentile": 82.5, "class": "above", "years_of_record": 18, "days_with_climatology": 365, "join_verdict": "clean", "datum_offset": 0.037, "siblings_collapsed": 2, "sibling_classes": ["above", "normal"], "recent_era_rank": 39.8}}, {"type": "Feature", "geometry": {"type": "Point", "coordinates": [-64.045, -25.3452777777778]}, "properties": {"series_id": "26496", "station": "Canal Liag - Quebrachal", "river": "", "tier": "2", "variable": "level", "var_id": 39, "last_date": "2026-08-29", "last_value": 0.78, "percentile": 92.6, "class": "above", "years_of_record": 26, "days_with_climatology": 365, "join_verdict": "clean", "datum_offset": -0.05, "siblings_collapsed": 5, "sibling_classes": ["above", "much_above", "much_below"], "recent_era_rank": 69.7}}, {"type": "Feature", "geometry": {"type": "Point", "coordinates": [-53.995, -25.5905555555556]}, "properties": {"series_id": "26497", "station": "Iguazú - Puerto Andresito", "river": "", "tier": "2", "variable": "level", "var_id": 39, "last_date": "2026-08-29", "last_value": 1.43, "percentile": 88.3, "class": "above", "years_of_record": 26, "days_with_climatology": 365, "join_verdict": "clean", "datum_offset": 0.0, "siblings_collapsed": 2, "sibling_classes": ["above", "normal"], "recent_era_rank": 48.6}}, {"type": "Feature", "geometry": {"type": "Point", "coordinates": [-71.4016666666667, -43.6716666666667]}, "properties": {"series_id": "26498", "station": "Carrenleufú - Poncho Moro", "river": "", "tier": "2", "variable": "level", "var_id": 39, "last_date": "2026-08-29", "last_value": 0.63, "percentile": 15.6, "class": "below", "years_of_record": 26, "days_with_climatology": 365, "join_verdict": "corrected", "datum_offset": 0.13, "siblings_collapsed": 2, "sibling_classes": ["above", "below", "normal"], "recent_era_rank": 38.6}}, {"type": "Feature", "geometry": {"type": "Point", "coordinates": [-59.3625, -26.3341666666667]}, "properties": {"series_id": "26506", "station": "Bermejo - El Colorado", "river": "", "tier": "2", "variable": "level", "var_id": 39, "last_date": "2026-08-29", "last_value": 2.97, "percentile": 95.5, "class": "much_above", "years_of_record": 26, "days_with_climatology": 365, "join_verdict": "clean", "datum_offset": 0.0, "siblings_collapsed": 2, "sibling_classes": ["much_above"], "recent_era_rank": 57.5}}, {"type": "Feature", "geometry": {"type": "Point", "coordinates": [-58.7883333333333, -29.0311111111111]}, "properties": {"series_id": "26516", "station": "Aº Batel - Paso Cerrito", "river": "", "tier": "2", "variable": "level", "var_id": 39, "last_date": "2026-08-29", "last_value": 1.0, "percentile": 65.6, "class": "normal", "years_of_record": 26, "days_with_climatology": 365, "join_verdict": "clean", "datum_offset": 0.0, "siblings_collapsed": 2, "sibling_classes": ["normal"], "recent_era_rank": 57.2}}, {"type": "Feature", "geometry": {"type": "Point", "coordinates": [-59.2172222222222, -29.7572222222222]}, "properties": {"series_id": "26517", "station": "Corrientes - Los Laureles", "river": "", "tier": "2", "variable": "level", "var_id": 39, "last_date": "2026-08-29", "last_value": 1.72, "percentile": 57.3, "class": "normal", "years_of_record": 24, "days_with_climatology": 365, "join_verdict": "clean", "datum_offset": 0.0, "siblings_collapsed": 2, "sibling_classes": ["normal"], "recent_era_rank": 60.6}}, {"type": "Feature", "geometry": {"type": "Point", "coordinates": [-60.8658333333333, -32.6733333333333]}, "properties": {"series_id": "26522", "station": "Carcarañá - Pueblo Andino", "river": "", "tier": "2", "variable": "level", "var_id": 39, "last_date": "2026-08-29", "last_value": 0.82, "percentile": 68.8, "class": "normal", "years_of_record": 26, "days_with_climatology": 365, "join_verdict": "clean", "datum_offset": 0.0, "siblings_collapsed": 2, "sibling_classes": ["normal"], "recent_era_rank": 46.7}}, {"type": "Feature", "geometry": {"type": "Point", "coordinates": [-72.8608333333333, -49.3433333333333]}, "properties": {"series_id": "26544", "station": "De las Vueltas", "river": "", "tier": "2", "variable": "level", "var_id": 39, "last_date": "2026-08-29", "last_value": 0.32, "percentile": 58.2, "class": "normal", "years_of_record": 10, "days_with_climatology": 15, "join_verdict": "clean", "datum_offset": 0.0, "siblings_collapsed": 1, "sibling_classes": ["normal"], "recent_era_rank": 76.7}}, {"type": "Feature", "geometry": {"type": "Point", "coordinates": [-64.1058333333333, -25.1608333333333]}, "properties": {"series_id": "26556", "station": "Canal Finca Agropecuaria", "river": "", "tier": "2", "variable": "level", "var_id": 39, "last_date": "2026-08-29", "last_value": 0.47, "percentile": 89.0, "class": "above", "years_of_record": 18, "days_with_climatology": 365, "join_verdict": "clean", "datum_offset": 0.02, "siblings_collapsed": 5, "sibling_classes": ["above", "normal"], "recent_era_rank": 34.5}}, {"type": "Feature", "geometry": {"type": "Point", "coordinates": [-56.5422222222222, -28.4166666666667]}, "properties": {"series_id": "26561", "station": "Aguapey - La Sirena", "river": "", "tier": "2", "variable": "level", "var_id": 39, "last_date": "2026-08-29", "last_value": 3.75, "percentile": 97.6, "class": "much_above", "years_of_record": 25, "days_with_climatology": 365, "join_verdict": "clean", "datum_offset": 0.0, "siblings_collapsed": 2, "sibling_classes": ["much_above"], "recent_era_rank": 59.8}}, {"type": "Feature", "geometry": {"type": "Point", "coordinates": [-63.7244444444444, -26.3741666666667]}, "properties": {"series_id": "26567", "station": "Salado - El Arenal", "river": "", "tier": "2", "variable": "level", "var_id": 39, "last_date": "2026-08-29", "last_value": 0.54, "percentile": 49.4, "class": "normal", "years_of_record": 17, "days_with_climatology": 365, "join_verdict": "clean", "datum_offset": 0.0, "siblings_collapsed": 2, "sibling_classes": ["normal"], "recent_era_rank": 73.4}}, {"type": "Feature", "geometry": {"type": "Point", "coordinates": [-57.2363888888889, -28.9166666666667]}, "properties": {"series_id": "26573", "station": "Miriñay - Paso Mesa", "river": "", "tier": "2", "variable": "level", "var_id": 39, "last_date": "2026-08-29", "last_value": 2.49, "percentile": 84.9, "class": "above", "years_of_record": 17, "days_with_climatology": 365, "join_verdict": "corrected", "datum_offset": 0.0, "siblings_collapsed": 2, "sibling_classes": ["above"], "recent_era_rank": 4.1}}, {"type": "Feature", "geometry": {"type": "Point", "coordinates": [-59.0905555555556, -28.9877777777778]}, "properties": {"series_id": "26579", "station": "Santa Lucia - Santa Lucia", "river": "", "tier": "2", "variable": "level", "var_id": 39, "last_date": "2026-08-29", "last_value": 0.13, "percentile": 27.5, "class": "normal", "years_of_record": 26, "days_with_climatology": 365, "join_verdict": "clean", "datum_offset": 0.0, "siblings_collapsed": 2, "sibling_classes": ["normal"], "recent_era_rank": 43.2}}, {"type": "Feature", "geometry": {"type": "Point", "coordinates": [-62.2133333333333, -22.7280555555556]}, "properties": {"series_id": "26580", "station": "Pilcomayo - Puesto Jerez", "river": "", "tier": "2", "variable": "level", "var_id": 39, "last_date": "2026-08-29", "last_value": 1.12, "percentile": 79.9, "class": "above", "years_of_record": 12, "days_with_climatology": 365, "join_verdict": "clean", "datum_offset": 0.003, "siblings_collapsed": 2, "sibling_classes": ["above"], "recent_era_rank": 22.4}}, {"type": "Feature", "geometry": {"type": "Point", "coordinates": [-58.5583333333333, -28.995]}, "properties": {"series_id": "26585", "station": "Corriente - Paso Lucero", "river": "", "tier": "2", "variable": "level", "var_id": 39, "last_date": "2026-08-29", "last_value": 1.78, "percentile": 49.7, "class": "normal", "years_of_record": 26, "days_with_climatology": 365, "join_verdict": "clean", "datum_offset": 0.0, "siblings_collapsed": 2, "sibling_classes": ["normal"], "recent_era_rank": 58.1}}, {"type": "Feature", "geometry": {"type": "Point", "coordinates": [-59.7638888888889, -32.3947222222222]}, "properties": {"series_id": "26590", "station": "Nogoya - RN Nº12", "river": "", "tier": "2", "variable": "level", "var_id": 39, "last_date": "2026-08-29", "last_value": 2.33, "percentile": 72.5, "class": "normal", "years_of_record": 18, "days_with_climatology": 365, "join_verdict": "clean", "datum_offset": 0.0, "siblings_collapsed": 2, "sibling_classes": ["normal"], "recent_era_rank": 24.6}}, {"type": "Feature", "geometry": {"type": "Point", "coordinates": [-71.8719444444444, -47.5113888888889]}, "properties": {"series_id": "26594", "station": "Lago Posadas - Posadas", "river": "", "tier": "2", "variable": "level", "var_id": 39, "last_date": "2026-08-29", "last_value": 1.82, "percentile": 75.4, "class": "above", "years_of_record": 17, "days_with_climatology": 365, "join_verdict": "corrected", "datum_offset": 0.0, "siblings_collapsed": 2, "sibling_classes": ["above"], "recent_era_rank": 91.4}}, {"type": "Feature", "geometry": {"type": "Point", "coordinates": [-58.5697222222222, -27.5105555555556]}, "properties": {"series_id": "26599", "station": "Aº Riachuelo - RP Nº5", "river": "", "tier": "2", "variable": "level", "var_id": 39, "last_date": "2026-08-29", "last_value": 1.43, "percentile": 80.6, "class": "above", "years_of_record": 18, "days_with_climatology": 365, "join_verdict": "clean", "datum_offset": 0.0, "siblings_collapsed": 2, "sibling_classes": ["above"], "recent_era_rank": 71.0}}, {"type": "Feature", "geometry": {"type": "Point", "coordinates": [-58.0588888888889, -30.1083333333333]}, "properties": {"series_id": "37996", "station": "Mocoretá - RN Nº 127", "river": "", "tier": "2", "variable": "level", "var_id": 39, "last_date": "2026-08-29", "last_value": 3.25, "percentile": 94.2, "class": "above", "years_of_record": 17, "days_with_climatology": 365, "join_verdict": "clean", "datum_offset": -0.1, "siblings_collapsed": 2, "sibling_classes": ["above"], "recent_era_rank": 42.7}}, {"type": "Feature", "geometry": {"type": "Point", "coordinates": [-72.1063888888889, -50.9961111111111]}, "properties": {"series_id": "37924", "station": "Vizcachas - Cerro Palique", "river": "", "tier": "2", "variable": "level", "var_id": 39, "last_date": "2026-08-29", "last_value": 1.11, "percentile": 93.8, "class": "above", "years_of_record": 17, "days_with_climatology": 365, "join_verdict": "clean", "datum_offset": 0.0, "siblings_collapsed": 2, "sibling_classes": ["above"], "recent_era_rank": 13.8}}, {"type": "Feature", "geometry": {"type": "Point", "coordinates": [-64.3691666666667, -22.7263888888889]}, "properties": {"series_id": "37917", "station": "Bermejo - Aguas Blancas LIM", "river": "", "tier": "2", "variable": "level", "var_id": 39, "last_date": "2026-08-29", "last_value": 1.09, "percentile": 0.0, "class": "much_below", "years_of_record": 22, "days_with_climatology": 365, "join_verdict": "clean", "datum_offset": -0.01, "siblings_collapsed": 2, "sibling_classes": ["much_below"], "recent_era_rank": 10.0}}, {"type": "Feature", "geometry": {"type": "Point", "coordinates": [-57.9827777777778, -30.6275]}, "properties": {"series_id": "37982", "station": "Aº Mocoretá - RN Nº 14", "river": "", "tier": "2", "variable": "level", "var_id": 39, "last_date": "2026-08-29", "last_value": 2.65, "percentile": 84.4, "class": "above", "years_of_record": 17, "days_with_climatology": 365, "join_verdict": "clean", "datum_offset": 0.0, "siblings_collapsed": 2, "sibling_classes": ["above"], "recent_era_rank": 51.8}}, {"type": "Feature", "geometry": {"type": "Point", "coordinates": [-60.1530555555556, -31.1933333333333]}, "properties": {"series_id": "38047", "station": "San Javier - Cayastá", "river": "", "tier": "2", "variable": "level", "var_id": 39, "last_date": "2026-08-29", "last_value": 3.08, "percentile": 60.4, "class": "normal", "years_of_record": 26, "days_with_climatology": 365, "join_verdict": "corrected", "datum_offset": 0.0, "siblings_collapsed": 2, "sibling_classes": ["normal"], "recent_era_rank": 20.6}}, {"type": "Feature", "geometry": {"type": "Point", "coordinates": [-60.6777777777778, -31.6302777777778]}, "properties": {"series_id": "38144", "station": "Sis. Setúbal-Sta. Fé-La Guard.", "river": "", "tier": "2", "variable": "level", "var_id": 39, "last_date": "2026-08-29", "last_value": 2.88, "percentile": 65.5, "class": "normal", "years_of_record": 26, "days_with_climatology": 365, "join_verdict": "corrected", "datum_offset": 0.0, "siblings_collapsed": 2, "sibling_classes": ["normal"], "recent_era_rank": 17.3}}, {"type": "Feature", "geometry": {"type": "Point", "coordinates": [-60.8158333333333, -32.4275]}, "properties": {"series_id": "37991", "station": "Coronda - Puerto Gaboto", "river": "", "tier": "2", "variable": "level", "var_id": 39, "last_date": "2026-08-29", "last_value": 1.12, "percentile": 66.1, "class": "normal", "years_of_record": 26, "days_with_climatology": 365, "join_verdict": "corrected", "datum_offset": -0.002, "siblings_collapsed": 2, "sibling_classes": ["normal"], "recent_era_rank": 16.6}}, {"type": "Feature", "geometry": {"type": "Point", "coordinates": [-57.5655555555556, -29.2969444444444]}, "properties": {"series_id": "38150", "station": "Miriñay - San Roquito", "river": "", "tier": "2", "variable": "level", "var_id": 39, "last_date": "2026-08-29", "last_value": 5.09, "percentile": 94.7, "class": "above", "years_of_record": 26, "days_with_climatology": 365, "join_verdict": "clean", "datum_offset": -0.06, "siblings_collapsed": 2, "sibling_classes": ["above"], "recent_era_rank": 45.4}}, {"type": "Feature", "geometry": {"type": "Point", "coordinates": [-59.6547222222222, -29.1333333333333]}, "properties": {"series_id": "38198", "station": "Aº El Rey - RN Nº11", "river": "", "tier": "2", "variable": "level", "var_id": 39, "last_date": "2026-08-29", "last_value": -0.17, "percentile": 22.7, "class": "below", "years_of_record": 26, "days_with_climatology": 365, "join_verdict": "corrected", "datum_offset": 0.0, "siblings_collapsed": 2, "sibling_classes": ["below"], "recent_era_rank": 13.2}}, {"type": "Feature", "geometry": {"type": "Point", "coordinates": [-59.9755555555556, -28.1102777777778]}, "properties": {"series_id": "38214", "station": "CIRHBAS - LIM LOS AMORES - CAN", "river": "", "tier": "2", "variable": "level", "var_id": 39, "last_date": "2026-08-29", "last_value": 0.6, "percentile": 81.2, "class": "above", "years_of_record": 16, "days_with_climatology": 365, "join_verdict": "clean", "datum_offset": 0.0, "siblings_collapsed": 2, "sibling_classes": ["above"], "recent_era_rank": 48.7}}, {"type": "Feature", "geometry": {"type": "Point", "coordinates": [-58.7075, -30.3930555555556]}, "properties": {"series_id": "38223", "station": "Aº Feliciano - Paso Correa RP2", "river": "", "tier": "2", "variable": "level", "var_id": 39, "last_date": "2026-08-29", "last_value": 6.63, "percentile": 94.4, "class": "above", "years_of_record": 12, "days_with_climatology": 365, "join_verdict": "clean", "datum_offset": -0.004, "siblings_collapsed": 2, "sibling_classes": ["above"], "recent_era_rank": 57.3}}, {"type": "Feature", "geometry": {"type": "Point", "coordinates": [-59.3558333333333, -28.5558333333333]}, "properties": {"series_id": "38225", "station": "Aº Los Amores - RN Nº11", "river": "", "tier": "2", "variable": "level", "var_id": 39, "last_date": "2026-08-29", "last_value": 2.72, "percentile": 89.0, "class": "above", "years_of_record": 26, "days_with_climatology": 365, "join_verdict": "clean", "datum_offset": 0.0, "siblings_collapsed": 2, "sibling_classes": ["above"], "recent_era_rank": 31.6}}, {"type": "Feature", "geometry": {"type": "Point", "coordinates": [-60.5766666666667, -33.36]}, "properties": {"series_id": "38227", "station": "Aº Pavón - Cnel. Bogado", "river": "", "tier": "2", "variable": "level", "var_id": 39, "last_date": "2026-08-29", "last_value": 0.92, "percentile": 40.7, "class": "normal", "years_of_record": 26, "days_with_climatology": 365, "join_verdict": "clean", "datum_offset": -0.001, "siblings_collapsed": 2, "sibling_classes": ["normal"], "recent_era_rank": 55.7}}, {"type": "Feature", "geometry": {"type": "Point", "coordinates": [-64.4636111111111, -22.4925]}, "properties": {"series_id": "38235", "station": "Bermejo - Balapuca MET", "river": "", "tier": "2", "variable": "level", "var_id": 39, "last_date": "2026-08-28", "last_value": 2.09, "percentile": 98.0, "class": "much_above", "years_of_record": 26, "days_with_climatology": 365, "join_verdict": "corrected", "datum_offset": -1.18, "siblings_collapsed": 2, "sibling_classes": ["much_above"], "recent_era_rank": 77.4}}, {"type": "Feature", "geometry": {"type": "Point", "coordinates": [-58.5547222222222, -32.445]}, "properties": {"series_id": "38259", "station": "Gualeguaychú - RN Nº 39", "river": "", "tier": "2", "variable": "level", "var_id": 39, "last_date": "2026-08-29", "last_value": 5.32, "percentile": 89.9, "class": "above", "years_of_record": 26, "days_with_climatology": 365, "join_verdict": "clean", "datum_offset": 0.0, "siblings_collapsed": 2, "sibling_classes": ["above"], "recent_era_rank": 8.1}}, {"type": "Feature", "geometry": {"type": "Point", "coordinates": [-54.58, -25.5933333333333]}, "properties": {"series_id": "38262", "station": "Iguazú - Pto. Iguazú", "river": "", "tier": "2", "variable": "level", "var_id": 39, "last_date": "2026-08-29", "last_value": 10.97, "percentile": 50.9, "class": "normal", "years_of_record": 26, "days_with_climatology": 365, "join_verdict": "corrected", "datum_offset": 0.016, "siblings_collapsed": 2, "sibling_classes": ["normal"], "recent_era_rank": 15.5}}, {"type": "Feature", "geometry": {"type": "Point", "coordinates": [-59.8647222222222, -32.8419444444444]}, "properties": {"series_id": "38279", "station": "Nogoya - RP Nº 11", "river": "", "tier": "2", "variable": "level", "var_id": 39, "last_date": "2026-08-29", "last_value": 2.4, "percentile": 26.3, "class": "normal", "years_of_record": 22, "days_with_climatology": 365, "join_verdict": "corrected", "datum_offset": 0.0, "siblings_collapsed": 2, "sibling_classes": ["below", "normal"], "recent_era_rank": 3.8}}, {"type": "Feature", "geometry": {"type": "Point", "coordinates": [-58.5363888888889, -35.7263888888889]}, "properties": {"series_id": "26600", "station": "Salado - RP Nº 41", "river": "", "tier": "2", "variable": "level", "var_id": 39, "last_date": "2026-08-29", "last_value": 1.26, "percentile": 66.7, "class": "normal", "years_of_record": 11, "days_with_climatology": 365, "join_verdict": "clean", "datum_offset": 0.0, "siblings_collapsed": 2, "sibling_classes": ["normal"], "recent_era_rank": 67.5}}, {"type": "Feature", "geometry": {"type": "Point", "coordinates": [-54.5883333333333, -26.4858333333333]}, "properties": {"series_id": "37858", "station": "Piray Guazú - R. Nac. 12 Vieja", "river": "", "tier": "2", "variable": "level", "var_id": 39, "last_date": "2026-08-29", "last_value": 0.58, "percentile": 23.0, "class": "below", "years_of_record": 26, "days_with_climatology": 365, "join_verdict": "clean", "datum_offset": 0.0, "siblings_collapsed": 2, "sibling_classes": ["below", "normal"], "recent_era_rank": 58.9}}, {"type": "Feature", "geometry": {"type": "Point", "coordinates": [-54.4983333333333, -26.355]}, "properties": {"series_id": "37925", "station": "Piray Mini - Valle Hermoso", "river": "", "tier": "2", "variable": "level", "var_id": 39, "last_date": "2026-08-29", "last_value": 0.54, "percentile": 29.1, "class": "normal", "years_of_record": 26, "days_with_climatology": 365, "join_verdict": "clean", "datum_offset": -0.01, "siblings_collapsed": 2, "sibling_classes": ["normal"], "recent_era_rank": 55.6}}, {"type": "Feature", "geometry": {"type": "Point", "coordinates": [-58.61, -27.2891666666667]}, "properties": {"series_id": "38130", "station": "Paraguay - Isla del Cerrito", "river": "", "tier": "2", "variable": "level", "var_id": 39, "last_date": "2026-08-29", "last_value": 2.91, "percentile": 78.5, "class": "above", "years_of_record": 11, "days_with_climatology": 365, "join_verdict": "clean", "datum_offset": 0.0, "siblings_collapsed": 2, "sibling_classes": ["above"], "recent_era_rank": 37.5}}, {"type": "Feature", "geometry": {"type": "Point", "coordinates": [-55.025, -26.7916666666667]}, "properties": {"series_id": "37913", "station": "Paraná - Puerto Rico", "river": "", "tier": "2", "variable": "level", "var_id": 39, "last_date": "2026-08-29", "last_value": 7.84, "percentile": 69.6, "class": "normal", "years_of_record": 19, "days_with_climatology": 365, "join_verdict": "clean", "datum_offset": -0.007, "siblings_collapsed": 2, "sibling_classes": ["normal"], "recent_era_rank": 28.5}}, {"type": "Feature", "geometry": {"type": "Point", "coordinates": [-55.335, -27.4011111111111]}, "properties": {"series_id": "38137", "station": "Yabebiry - Colonia Martires", "river": "", "tier": "2", "variable": "level", "var_id": 39, "last_date": "2026-08-29", "last_value": 3.95, "percentile": 99.3, "class": "much_above", "years_of_record": 21, "days_with_climatology": 365, "join_verdict": "corrected", "datum_offset": 0.0, "siblings_collapsed": 2, "sibling_classes": ["much_above"], "recent_era_rank": 96.1}}, {"type": "Feature", "geometry": {"type": "Point", "coordinates": [-64.0980555555555, -28.0144444444444]}, "properties": {"series_id": "38139", "station": "Dulce - Tuhama", "river": "", "tier": "2", "variable": "level", "var_id": 39, "last_date": "2026-08-29", "last_value": 0.73, "percentile": 0.0, "class": "much_below", "years_of_record": 17, "days_with_climatology": 365, "join_verdict": "clean", "datum_offset": -0.027, "siblings_collapsed": 2, "sibling_classes": ["much_below"], "recent_era_rank": 64.4}}, {"type": "Feature", "geometry": {"type": "Point", "coordinates": [-69.6555555555556, -51.6883333333333]}, "properties": {"series_id": "43100", "station": "Gallego-Toma SP", "river": "", "tier": "2", "variable": "level", "var_id": 2, "last_date": "2026-08-30", "last_value": 0.827, "percentile": 0.0, "class": "much_below", "years_of_record": 12, "days_with_climatology": 365, "join_verdict": "corrected", "datum_offset": 0.0, "siblings_collapsed": 0, "sibling_classes": ["much_below"], "recent_era_rank": 22.0}}, {"type": "Feature", "geometry": {"type": "Point", "coordinates": [-54.4536111111111, -26.5119444444444]}, "properties": {"series_id": "38197", "station": "Piray Guazú - Pinar Ciba", "river": "", "tier": "2", "variable": "level", "var_id": 39, "last_date": "2026-08-29", "last_value": 0.46, "percentile": 42.9, "class": "normal", "years_of_record": 26, "days_with_climatology": 365, "join_verdict": "clean", "datum_offset": 0.0, "siblings_collapsed": 2, "sibling_classes": ["normal"], "recent_era_rank": 48.9}}, {"type": "Feature", "geometry": {"type": "Point", "coordinates": [-58.6747222222222, -28.8994444444444]}, "properties": {"series_id": "38201", "station": "Batel -RN Nº123", "river": "", "tier": "2", "variable": "level", "var_id": 39, "last_date": "2026-08-29", "last_value": 2.84, "percentile": 59.5, "class": "normal", "years_of_record": 17, "days_with_climatology": 365, "join_verdict": "clean", "datum_offset": 0.0, "siblings_collapsed": 2, "sibling_classes": ["normal"], "recent_era_rank": 47.6}}, {"type": "Feature", "geometry": {"type": "Point", "coordinates": [-60.4969444444444, -29.0655555555556]}, "properties": {"series_id": "38224", "station": "Aº Golondrina - Fortín Olmos", "river": "", "tier": "2", "variable": "level", "var_id": 39, "last_date": "2026-08-29", "last_value": 1.41, "percentile": 95.8, "class": "much_above", "years_of_record": 26, "days_with_climatology": 365, "join_verdict": "clean", "datum_offset": 0.01, "siblings_collapsed": 2, "sibling_classes": ["much_above"], "recent_era_rank": 45.0}}, {"type": "Feature", "geometry": {"type": "Point", "coordinates": [-60.4127777777778, -30.8402777777778]}, "properties": {"series_id": "38229", "station": "Aº Saladillo Amargo - RP Nº 81", "river": "", "tier": "2", "variable": "level", "var_id": 39, "last_date": "2026-08-25", "last_value": 2.19, "percentile": 100.0, "class": "much_above", "years_of_record": 26, "days_with_climatology": 365, "join_verdict": "clean", "datum_offset": 0.0, "siblings_collapsed": 2, "sibling_classes": ["much_above"], "recent_era_rank": 44.4}}, {"type": "Feature", "geometry": {"type": "Point", "coordinates": [-60.2822222222222, -30.8547222222222]}, "properties": {"series_id": "38230", "station": "Aº Saladillo Dulce - RP Nº 81", "river": "", "tier": "2", "variable": "level", "var_id": 39, "last_date": "2026-08-29", "last_value": 1.38, "percentile": 100.0, "class": "much_above", "years_of_record": 22, "days_with_climatology": 365, "join_verdict": "corrected", "datum_offset": 0.0, "siblings_collapsed": 2, "sibling_classes": ["much_above"], "recent_era_rank": 88.2}}, {"type": "Feature", "geometry": {"type": "Point", "coordinates": [-58.4905555555556, -32.1047222222222]}, "properties": {"series_id": "38258", "station": "Gualeguaychú - RN Nº 130", "river": "", "tier": "2", "variable": "level", "var_id": 39, "last_date": "2026-08-29", "last_value": 1.88, "percentile": 87.7, "class": "above", "years_of_record": 26, "days_with_climatology": 365, "join_verdict": "corrected", "datum_offset": -0.0, "siblings_collapsed": 2, "sibling_classes": ["above"], "recent_era_rank": 6.2}}, {"type": "Feature", "geometry": {"type": "Point", "coordinates": [-65.8230555555556, -26.0119444444444]}, "properties": {"series_id": "38268", "station": "Las Conchas - La Punilla RP44", "river": "", "tier": "2", "variable": "level", "var_id": 39, "last_date": "2026-08-29", "last_value": 3.2, "percentile": 78.0, "class": "above", "years_of_record": 18, "days_with_climatology": 365, "join_verdict": "corrected", "datum_offset": 0.46, "siblings_collapsed": 2, "sibling_classes": ["above"], "recent_era_rank": 38.8}}, {"type": "Feature", "geometry": {"type": "Point", "coordinates": [-55.588412, -27.33509]}, "properties": {"series_id": "26255", "station": "Santa Ana", "river": "PARANAMED", "tier": "1", "variable": "level", "var_id": 39, "last_date": "2026-08-29", "last_value": 7.45, "percentile": 50.2, "class": "normal", "years_of_record": 18, "days_with_climatology": 365, "join_verdict": "solo", "datum_offset": 0.0, "siblings_collapsed": 1, "sibling_classes": ["normal"], "recent_era_rank": 40.4}}, {"type": "Feature", "geometry": {"type": "Point", "coordinates": [-59.27303952, -29.14376844]}, "properties": {"series_id": "26265", "station": "Goya", "river": "PARANAINF", "tier": "1", "variable": "level", "var_id": 39, "last_date": "2026-08-29", "last_value": 2.87, "percentile": 61.1, "class": "normal", "years_of_record": 124, "days_with_climatology": 365, "join_verdict": "solo", "datum_offset": 0.0, "siblings_collapsed": 1, "sibling_classes": ["normal"], "recent_era_rank": 23.3}}, {"type": "Feature", "geometry": {"type": "Point", "coordinates": [-59.7833333333333, -30.95]}, "properties": {"series_id": "26269", "station": "Santa Elena", "river": "PARANAINF", "tier": "1", "variable": "level", "var_id": 39, "last_date": "2026-08-29", "last_value": 3.41, "percentile": 48.8, "class": "normal", "years_of_record": 51, "days_with_climatology": 365, "join_verdict": "solo", "datum_offset": 0.0, "siblings_collapsed": 1, "sibling_classes": ["normal"], "recent_era_rank": 12.6}}, {"type": "Feature", "geometry": {"type": "Point", "coordinates": [-60.5225697750899, -31.7182378629681]}, "properties": {"series_id": "26271", "station": "Paraná", "river": "PARANAINF", "tier": "1", "variable": "level", "var_id": 39, "last_date": "2026-08-29", "last_value": 2.68, "percentile": 71.5, "class": "normal", "years_of_record": 125, "days_with_climatology": 365, "join_verdict": "clean", "datum_offset": 0.0, "siblings_collapsed": 3, "sibling_classes": ["above", "normal"], "recent_era_rank": 24.2}}, {"type": "Feature", "geometry": {"type": "Point", "coordinates": [-60.7002319185745, -31.6514772196376]}, "properties": {"series_id": "26272", "station": "Santa Fe", "river": "PARANAINF", "tier": "1", "variable": "level", "var_id": 39, "last_date": "2026-08-29", "last_value": 2.98, "percentile": 54.0, "class": "normal", "years_of_record": 57, "days_with_climatology": 365, "join_verdict": "solo", "datum_offset": 0.0, "siblings_collapsed": 3, "sibling_classes": ["normal"], "recent_era_rank": 10.7}}, {"type": "Feature", "geometry": {"type": "Point", "coordinates": [-60.1895279977149, -33.3420008188866]}, "properties": {"series_id": "26278", "station": "San Nicolás", "river": "PARANAINF", "tier": "1", "variable": "level", "var_id": 39, "last_date": "2026-08-29", "last_value": 2.05, "percentile": 43.7, "class": "normal", "years_of_record": 57, "days_with_climatology": 365, "join_verdict": "solo", "datum_offset": 0.0, "siblings_collapsed": 1, "sibling_classes": ["normal"], "recent_era_rank": 8.7}}, {"type": "Feature", "geometry": {"type": "Point", "coordinates": [-59.9957013181522, -33.4780656197056]}, "properties": {"series_id": "26279", "station": "Ramallo", "river": "PARANAINF", "tier": "1", "variable": "level", "var_id": 39, "last_date": "2026-08-29", "last_value": 1.82, "percentile": 43.7, "class": "normal", "years_of_record": 57, "days_with_climatology": 365, "join_verdict": "solo", "datum_offset": 0.0, "siblings_collapsed": 1, "sibling_classes": ["normal"], "recent_era_rank": 9.8}}, {"type": "Feature", "geometry": {"type": "Point", "coordinates": [-58.7333333333, -34.3]}, "properties": {"series_id": "26284", "station": "Escobar", "river": "PARANADELASPALMAS", "tier": "1", "variable": "level", "var_id": 39, "last_date": "2026-08-29", "last_value": 0.8, "percentile": 69.0, "class": "normal", "years_of_record": 21, "days_with_climatology": 365, "join_verdict": "solo", "datum_offset": 0.0, "siblings_collapsed": 1, "sibling_classes": ["normal"], "recent_era_rank": 35.7}}, {"type": "Feature", "geometry": {"type": "Point", "coordinates": [-58.65, -33.7]}, "properties": {"series_id": "26285", "station": "Villa Paranacito", "river": "LATINTA", "tier": "1", "variable": "level", "var_id": 39, "last_date": "2026-08-29", "last_value": 1.7, "percentile": 72.2, "class": "normal", "years_of_record": 43, "days_with_climatology": 365, "join_verdict": "solo", "datum_offset": 0.0, "siblings_collapsed": 1, "sibling_classes": ["normal"], "recent_era_rank": 37.8}}, {"type": "Feature", "geometry": {"type": "Point", "coordinates": [-58.6604197120006, -33.8627031166646]}, "properties": {"series_id": "26286", "station": "Canal Nuevo", "river": "CANALGAFOTRE", "tier": "1", "variable": "level", "var_id": 39, "last_date": "2026-08-29", "last_value": 2.0, "percentile": 86.3, "class": "above", "years_of_record": 21, "days_with_climatology": 365, "join_verdict": "solo", "datum_offset": 0.0, "siblings_collapsed": 1, "sibling_classes": ["above"], "recent_era_rank": 51.4}}, {"type": "Feature", "geometry": {"type": "Point", "coordinates": [-59.3666666667, -33.2166666667]}, "properties": {"series_id": "26288", "station": "Puerto Ruiz", "river": "GUALEGUAY", "tier": "1", "variable": "level", "var_id": 39, "last_date": "2026-08-29", "last_value": 2.44, "percentile": 75.9, "class": "above", "years_of_record": 24, "days_with_climatology": 365, "join_verdict": "unusable", "datum_offset": 0.0, "siblings_collapsed": 1, "sibling_classes": ["above"], "recent_era_rank": 19.4}}, {"type": "Feature", "geometry": {"type": "Point", "coordinates": [-58.686115, -34.351576]}, "properties": {"series_id": "26292", "station": "Dique Luján", "river": "LUJAN", "tier": "1", "variable": "level", "var_id": 39, "last_date": "2026-08-29", "last_value": 1.0, "percentile": 66.0, "class": "normal", "years_of_record": 21, "days_with_climatology": 365, "join_verdict": "solo", "datum_offset": 0.0, "siblings_collapsed": 1, "sibling_classes": ["above", "normal"], "recent_era_rank": 47.0}}, {"type": "Feature", "geometry": {"type": "Point", "coordinates": [-58.507163, -34.457166]}, "properties": {"series_id": "26295", "station": "San Isidro", "river": "RIODELAPLATA", "tier": "1", "variable": "level", "var_id": 39, "last_date": "2026-08-29", "last_value": 1.0, "percentile": 49.2, "class": "normal", "years_of_record": 21, "days_with_climatology": 365, "join_verdict": "solo", "datum_offset": 0.0, "siblings_collapsed": 1, "sibling_classes": ["below", "normal"], "recent_era_rank": 42.9}}, {"type": "Feature", "geometry": {"type": "Point", "coordinates": [-58.1833333333333, -26.1833333333333]}, "properties": {"series_id": "26299", "station": "Puerto Formosa", "river": "PARAGUAY", "tier": "1", "variable": "level", "var_id": 39, "last_date": "2026-08-29", "last_value": 2.43, "percentile": 20.2, "class": "below", "years_of_record": 21, "days_with_climatology": 365, "join_verdict": "solo", "datum_offset": 0.0, "siblings_collapsed": 3, "sibling_classes": ["below"], "recent_era_rank": 26.0}}, {"type": "Feature", "geometry": {"type": "Point", "coordinates": [-58.6166666666667, -27.3166666666667]}, "properties": {"series_id": "26301", "station": "Isla del Cerrito", "river": "PARAGUAY", "tier": "1", "variable": "level", "var_id": 39, "last_date": "2026-08-29", "last_value": 2.85, "percentile": 68.8, "class": "normal", "years_of_record": 15, "days_with_climatology": 365, "join_verdict": "solo", "datum_offset": 0.0, "siblings_collapsed": 1, "sibling_classes": ["normal"], "recent_era_rank": 35.1}}, {"type": "Feature", "geometry": {"type": "Point", "coordinates": [-54.678494, -27.572]}, "properties": {"series_id": "26305", "station": "Alba Posse", "river": "URUGUAY", "tier": "1", "variable": "level", "var_id": 39, "last_date": "2026-08-29", "last_value": 4.3, "percentile": 79.5, "class": "above", "years_of_record": 45, "days_with_climatology": 365, "join_verdict": "solo", "datum_offset": 0.0, "siblings_collapsed": 1, "sibling_classes": ["above", "normal"], "recent_era_rank": 55.8}}, {"type": "Feature", "geometry": {"type": "Point", "coordinates": [-56.55, -29.1]}, "properties": {"series_id": "26311", "station": "Alvear", "river": "URUGUAY", "tier": "1", "variable": "level", "var_id": 39, "last_date": "2026-08-29", "last_value": 4.7, "percentile": 79.0, "class": "above", "years_of_record": 21, "days_with_climatology": 365, "join_verdict": "solo", "datum_offset": 0.0, "siblings_collapsed": 1, "sibling_classes": ["above"], "recent_era_rank": 45.2}}, {"type": "Feature", "geometry": {"type": "Point", "coordinates": [-56.7153015136719, -36.3544006347656]}, "properties": {"series_id": "26391", "station": "San Clemente", "river": "", "tier": "1", "variable": "level", "var_id": 39, "last_date": "2026-08-29", "last_value": 0.99, "percentile": 73.2, "class": "normal", "years_of_record": 9, "days_with_climatology": 8, "join_verdict": "solo", "datum_offset": 0.0, "siblings_collapsed": 1, "sibling_classes": ["above", "normal"], "recent_era_rank": 65.4}}, {"type": "Feature", "geometry": {"type": "Point", "coordinates": [-59.5511111111111, -30.9236111111111]}, "properties": {"series_id": "26484", "station": "Aº Feliciano - Paso Medina", "river": "", "tier": "2", "variable": "level", "var_id": 39, "last_date": "2026-08-29", "last_value": 4.39, "percentile": 97.1, "class": "much_above", "years_of_record": 26, "days_with_climatology": 365, "join_verdict": "clean", "datum_offset": 0.0, "siblings_collapsed": 2, "sibling_classes": ["above", "much_above"], "recent_era_rank": 47.4}}, {"type": "Feature", "geometry": {"type": "Point", "coordinates": [-71.17, -42.0997222222222]}, "properties": {"series_id": "26545", "station": "Chubut - El Maitén", "river": "", "tier": "2", "variable": "level", "var_id": 39, "last_date": "2026-08-29", "last_value": 1.56, "percentile": 87.4, "class": "above", "years_of_record": 10, "days_with_climatology": 27, "join_verdict": "clean", "datum_offset": 0.0, "siblings_collapsed": 1, "sibling_classes": ["above"], "recent_era_rank": 50.0}}, {"type": "Feature", "geometry": {"type": "Point", "coordinates": [-60.6019444444444, -31.6611111111111]}, "properties": {"series_id": "26558", "station": "Colastiné - RN N° 168", "river": "", "tier": "2", "variable": "level", "var_id": 39, "last_date": "2026-08-29", "last_value": 2.99, "percentile": 72.2, "class": "normal", "years_of_record": 26, "days_with_climatology": 365, "join_verdict": "corrected", "datum_offset": 0.01, "siblings_collapsed": 1, "sibling_classes": ["normal"], "recent_era_rank": 17.7}}, {"type": "Feature", "geometry": {"type": "Point", "coordinates": [-60.425, -31.4947222222222]}, "properties": {"series_id": "26586", "station": "Aº Leyes - RP Nº 1", "river": "", "tier": "2", "variable": "level", "var_id": 39, "last_date": "2026-08-29", "last_value": 5.71, "percentile": 68.6, "class": "normal", "years_of_record": 26, "days_with_climatology": 365, "join_verdict": "corrected", "datum_offset": 0.0, "siblings_collapsed": 2, "sibling_classes": ["normal"], "recent_era_rank": 16.8}}, {"type": "Feature", "geometry": {"type": "Point", "coordinates": [-59.8169444444444, -34.3519444444444]}, "properties": {"series_id": "34892", "station": "Areco - Carmen de Areco", "river": "", "tier": "2", "variable": "flow", "var_id": 40, "last_date": "2026-08-29", "last_value": 0.59, "percentile": 31.8, "class": "normal", "years_of_record": 12, "days_with_climatology": 365, "join_verdict": "clean", "datum_offset": -0.539, "siblings_collapsed": 0, "sibling_classes": ["normal"], "recent_era_rank": 67.3}}, {"type": "Feature", "geometry": {"type": "Point", "coordinates": [-65.5933333333333, -24.8422222222222]}, "properties": {"series_id": "38095", "station": "Arenales - El Encon", "river": "", "tier": "2", "variable": "level", "var_id": 39, "last_date": "2026-08-29", "last_value": 1.92, "percentile": 87.4, "class": "above", "years_of_record": 18, "days_with_climatology": 365, "join_verdict": "corrected", "datum_offset": 0.313, "siblings_collapsed": 2, "sibling_classes": ["above", "normal"], "recent_era_rank": 72.5}}, {"type": "Feature", "geometry": {"type": "Point", "coordinates": [-58.7177777777778, -28.57]}, "properties": {"series_id": "38202", "station": "Santa Lucia - San Roque", "river": "", "tier": "2", "variable": "level", "var_id": 39, "last_date": "2026-08-29", "last_value": 1.13, "percentile": 68.2, "class": "normal", "years_of_record": 18, "days_with_climatology": 365, "join_verdict": "clean", "datum_offset": -0.62, "siblings_collapsed": 2, "sibling_classes": ["normal"], "recent_era_rank": 65.8}}, {"type": "Feature", "geometry": {"type": "Point", "coordinates": [-59.74, -29.505]}, "properties": {"series_id": "38203", "station": "San Javier - Romang", "river": "", "tier": "2", "variable": "level", "var_id": 39, "last_date": "2026-08-29", "last_value": 5.16, "percentile": 63.3, "class": "normal", "years_of_record": 26, "days_with_climatology": 365, "join_verdict": "clean", "datum_offset": -0.005, "siblings_collapsed": 2, "sibling_classes": ["normal"], "recent_era_rank": 27.6}}, {"type": "Feature", "geometry": {"type": "Point", "coordinates": [-66.1588888888889, -25.1205555555556]}, "properties": {"series_id": "38239", "station": "Calchaquí - Cachi", "river": "", "tier": "2", "variable": "level", "var_id": 39, "last_date": "2026-08-29", "last_value": 0.92, "percentile": 10.6, "class": "below", "years_of_record": 18, "days_with_climatology": 365, "join_verdict": "corrected", "datum_offset": -0.23, "siblings_collapsed": 2, "sibling_classes": ["below"], "recent_era_rank": 10.4}}, {"type": "Feature", "geometry": {"type": "Point", "coordinates": [-58.7713888888889, -31.105]}, "properties": {"series_id": "43101", "station": "Gualeguay - Paso Duarte RP22", "river": "", "tier": "2", "variable": "level", "var_id": 2, "last_date": "2026-08-30", "last_value": 7.26, "percentile": 100.0, "class": "much_above", "years_of_record": 8, "days_with_climatology": 6, "join_verdict": "clean", "datum_offset": 0.0, "siblings_collapsed": 0, "sibling_classes": ["much_above"], "recent_era_rank": 49.1}}, {"type": "Feature", "geometry": {"type": "Point", "coordinates": [-58.258174, -34.303933]}, "properties": {"series_id": "42277", "station": "Descarga al Río de la Plata", "river": "", "tier": "1", "variable": "flow", "var_id": 40, "last_date": "2026-08-30", "last_value": 23349.4, "percentile": 92.8, "class": "above", "years_of_record": 37, "days_with_climatology": 365, "join_verdict": "solo", "datum_offset": 0.0, "siblings_collapsed": 0, "sibling_classes": ["above"], "recent_era_rank": 29.2}}]}